Name,Line 1,Line 2,Town,County,Postcode,lat,lng
McDonald's,Muirend Road,Portlethen,Aberdeen,Aberdeenshire,AB12 4XP,57.0643664,-2.1378629
McDonald's,Buchan Way Ring Road Industrial Estate,,Peterhead,Aberdeenshire,AB42 3JL,57.4865108,-1.803691
McDonald's,25 Reform Street,,Dundee,Dundee City Council,DD1 1SG,56.4611775,-2.9705288
McDonald's,Longtown Road,Kingsway East,Dundee,Dundee City Council,DD4 8JT,56.477128,-2.928015
McDonald's,HALFPENNY BURN,,Forfar,Angus Council,DD8 1TE,56.6331292,-2.9227981
McDonald's,Ethiebeaton Park,Arbroath Road,Monifieth,Dundee,DD5 4HB,56.490441,-2.833015
McDonald's,Westway Westway Retail Park,,Arbroath,Angus Council,DD11 2NQ,56.5502169,-2.6109542
McDonald's,Kingsway West Kingsway Leisure Park,,Dundee,Dundee City Council,DD2 3SQ,56.4813707,-3.0219624
McDonald's,9 High Street,,Bedford,,MK40 1RN,52.1352286,-0.4659719
McDonald's,46/48,George Street,Luton,,LU1 2AZ,51.8790066,-0.4159793
McDonald's,2/8 Luton Road,,Dunstable,Central Bedfordshire,LU5 4UR,51.8876671,-0.5106449
McDonald's,Wyboston Service Station Southbound,Great North Road,Wyboston,Bedford,MK44 3AA,52.1931467,-0.298101
McDonald's,Aspects Leisure Park,Newnham Avenue,Bedford,,MK41 9LN,52.1340166,-0.445875
McDonald's,Interchange Retail Park,Race Meadows Way,Kempston Hardwick,Bedford,MK42 7AZ,52.1094637,-0.4849267
McDonald's,Watling Street,Hockliffe,Leighton Buzzard,Central Bedfordshire,LU7 9LZ,51.925742,-0.5776844
McDonald's,270 Marsh Road,Leagrave,Luton,,LU3 2TU,51.9069317,-0.4575221
McDonald's,Billington Road,,Leighton Buzzard,Central Bedfordshire,LU7 9HH,51.9013405,-0.65024
McDonald's,2b Chaul End Lane,Maidenhall,Luton,,LU4 8EZ,51.8906748,-0.4544658
McDonald's,Luton Retail Park,Gipsy Lane,Luton,,LU1 3JH,51.8723519,-0.3978839
McDonald's,Unit F1,,Biggleswade,Central Bedfordshire,SG18 8QB,52.0752441,-0.2430113
McDonald's,Ballymena Road Junction One Retail Park,,Antrim,Antrim and Newtownabbey,BT41 4LL,54.7311581,-6.2288
McDonald's,172 High Street,,Slough,,SL1 1JP,51.5084606,-0.5918668
McDonald's,129 Friar Street,,Reading,,RG1 1EP,51.456621,-0.973803
McDonald's,67 High Street,,Maidenhead,Windsor and Maidenhead,SL6 1JT,51.5227316,-0.7213821
McDonald's,14 Thames Street,,Windsor,Windsor and Maidenhead,SL4 1PL,51.483559,-0.608727
McDonald's,63 Northbrook Street,,Newbury,West Berkshire,RG14 1AE,51.4041379,-1.3249473
McDonald's,Retail Park,Bath Road,Slough,,SL1 4DX,51.5209234,-0.6375766
McDonald's,RETAIL PARK,Pinchington Lane,Newbury,West Berkshire,RG14 7HU,51.3847141,-1.3192748
McDonald's,287 Oxford Road,,Reading,,RG30 1AS,51.4556109,-0.9905367
McDonald's,The Keep,Wildridings Road,Bracknell,Bracknell Forest,RG12 7WT,51.4036726,-0.7650265
McDonald's,Newbury Lane A34 Newbury Bypass ,Burghclere,Newbury,Hampshire,RG20 9BX,51.3485818,-1.3412966
McDonald's,UNIT 8 READING GATE RETAIL PARK,,Reading,,RG2 0QG,51.4237927,-0.9799552
McDonald's,14 Bridge St The Oracle Shopping Centre,,Reading,,RG1 2AG,51.4534695,-0.9713115
McDonald's,79 Windsor Road,,Slough,,SL1 2JD,51.5065185,-0.596711
McDonald's,Kenavon Drive Forbury Retail Park,,Reading,,RG1 3HS,51.4577268,-0.9610194
McDonald's,Bestobell Road,,Slough,,SL1 4PN,51.5204987,-0.616479
McDonald's,Chalfont Way,The Square,Lower Earley,Reading,RG6 5HJ,51.4227469,-0.9351115
McDonald's,Telford Drive,Cippenham,Slough,,SL1 9LA,51.5071507,-0.6295206
McDonald's,A4,Calcot,Reading,West Berkshire,RG31 7SA,51.44166,-1.0619018
McDonald's,45 High Street The Lexicon Centre,,Bracknell,Bracknell Forest,RG12 1EA,51.4164347,-0.7499531
McDonald's,Wilderhaugh,,Galashiels,Scottish Borders,TD1 1PR,55.6204225,-2.8162876
McDonald's,Pencoed Technology Park Pencoed Business Park,,Bridgend,Pencoed,CF35 5HY,51.5139839,-3.4959656
McDonald's,Stadium Way West Stadium,,Milton Keynes,Bletchley,MK1 1ET,52.0104029,-0.7318783
McDonald's,52/56 Midsummer Boulevard,ARCADE,Milton Keynes,,MK9 3BB,52.0424864,-0.7564757
McDonald's,41 High Street,,High Wycombe,Buckinghamshire,HP11 2AG,51.62887,-0.7508966
McDonald's,24 High Street,,Aylesbury,Buckinghamshire,HP20 1SQ,51.8169443,-0.8108929
McDonald's,1 Broadfields,,Aylesbury,Buckinghamshire,HP19 8BU,51.8242378,-0.8333464
McDonald's,41 Winchester Circle,Kingston,Milton Keynes,,MK10 0BA,52.035687,-0.6904144
McDonald's,Avebury Boulevard,,Milton Keynes,,MK9 1DY,52.038959,-0.776424
McDonald's,25 Barnsdale Drive,Westcroft,Milton Keynes,,MK4 4DD,52.0057458,-0.7926352
McDonald's,602 Marlborough Gate,,Milton Keynes,,MK9 3XS,52.0414621,-0.7486003
McDonald's,Holmers Farm Way,,High Wycombe,Buckinghamshire,HP12 4NU,51.6110869,-0.7799916
McDonald's,Windsor Road,,Beaconsfield,Buckinghamshire,HP9 2SE,51.5877852,-0.6278817
McDonald's,Watling Street,,Milton Keynes,,MK17 9DN,51.99179,-0.699266
McDonald's,McConnell Drive,Wolverton,Milton Keynes,,MK12 5RJ,52.0646197,-0.8071514
McDonald's,Dovecot Road,,High Wycombe,Buckinghamshire,HP13 5HL,51.632575,-0.7539867
McDonald's,57/58 Queensgate Centre,,Peterborough,,PE1 1NH,52.5729194,-0.2433328
McDonald's,Padholme Road East,,Peterborough,,PE1 5XL,52.577557,-0.2203636
McDonald's,9 Rose Crescent,,Cambridge,Cambridgeshire,CB2 3LL,52.206039,0.1190666
McDonald's,Bourges Boulevard,,Peterborough,,PE1 2AF,52.5812029,-0.2522803
McDonald's,Crowland Road,Eye Green,Peterborough,,PE6 7TN,52.6120045,-0.1880595
McDonald's,A14 Great North Road,,Brampton,Cambridgeshire,PE28 4NQ,52.3314346,-0.2521018
McDonald's,A505 Whittlesford Service Station,,Cambridge,Cambridgeshire,CB22 3HD,52.104042,0.1767968
McDonald's,2 Ashbourne Road,The Serpentine,Hampton,Peterborough,PE7 8BT,52.5404377,-0.2567041
McDonald's,Leisure Park,,Huntingdon,Cambridgeshire,PE29 7EG,52.3515404,-0.1818457
McDonald's,639 Newmarket Road,,Cambridge,Cambridgeshire,CB5 8WL,52.2127623,0.1634961
McDonald's,A14 Huntingdon Road,,Cambridge,Cambridgeshire,CB23 4WU,52.268847,-0.0088747
McDonald's,Peterborough Services,Haddon,Peterborough,Cambridgeshire,PE7 3UQ,52.5315283,-0.3205645
McDonald's,Lincoln Road,Glinton,Peterborough,,PE6 7JR,52.6318762,-0.2975332
McDonald's,Cromwell Road,,Wisbech,Cambridgeshire,PE14 0RD,52.6532135,0.1470617
McDonald's,Ermine Street,Gibbet Park,Cambridge,Cambridgeshire,CB23 3PE,52.2286652,-0.1027503
McDonald's,3 Downham Road Ely Leisure Village,,Ely,Cambridgeshire,CB6 2SH,52.4095849,0.2521375
McDonald's,Lincoln Road,,Peterborough,,PE4 6AB,52.6000247,-0.266906
McDonald's,1 Harrison Way,,Saint Ives,Cambridgeshire,PE27 4WY,52.3309988,-0.0609638
McDonald's,Leckwith Road,,Cardiff,,CF11 8AZ,51.4733422,-3.2064257
McDonald's,1,Dering Road,Pontprennau,Cardiff,CF23 8NL,51.5356951,-3.1305539
McDonald's,1,Trostre Road,Llanelli,Carmarthenshire,SA14 9UY,51.6781047,-4.134439
McDonald's,Heol Stanllyd,Heol Parc Mawr,Cross Hands,Llanelli,SA14 6RE,51.7965246,-4.0821504
McDonald's,Myrtle Hill,Pensarn,Carmarthen,Carmarthenshire,SA31 2NG,51.8463418,-4.3096498
McDonald's,Parc y Llyn Retail Park,Ffordd Parc y Llyn,Llanbadarn Fawr,Aberystwyth,SY23 3TL,52.4053489,-4.0656413
McDonald's,Derwen,,Bridgend,Bridgend County Borough,CF32 9SU,51.5324004,-3.5751101
McDonald's,17/19 Mersey Way,,Stockport,Greater Manchester,SK1 1PN,53.4118576,-2.1588305
McDonald's,16 Bridge Street,,Warrington,,WA1 2QW,53.388501,-2.59355
McDonald's,52 Foregate Street,,Chester,Cheshire West and Chester,CH1 1HA,53.1911191,-2.8861507
McDonald's,39-41 High Street,,Northwich,Cheshire West and Chester,CW9 5DD,53.2615824,-2.5148719
McDonald's,212 Winwick Road,,Warrington,,WA2 8HQ,53.4005092,-2.5947869
McDonald's,44 Wellington Road South,,Stockport,Greater Manchester,SK1 3SS,53.407503,-2.1606838
McDonald's,Moor Lane,,Widnes,Borough of Halton,WA8 7AP,53.3615912,-2.7406438
McDonald's,6 Old Seals Way,,Chester,Cheshire West and Chester,CH1 4RY,53.1976829,-2.910122
McDonald's,Clayton Bypass,A34,Congleton,Cheshire East,CW12 1LR,53.1673582,-2.2188889
McDonald's,Cliff Lane,,Lymm,Warrington,WA13 0SP,53.3591346,-2.5051621
McDonald's,810,Europa Boulevard,Westbrook,Warrington,WA5 7TY,53.4160061,-2.6267493
McDonald's,George Richards Way,Broadheath,Altrincham,Greater Manchester,WA14 5GR,53.399807,-2.3557157
McDonald's,Silk Retail Park,Hulley Road,Macclesfield,Cheshire East,SK10 2SF,53.2728486,-2.1190839
McDonald's,Benson Road Birchwood Shopping Centre,,Warrington,Birchwood,WA3 7PQ,53.4145446,-2.5287362
McDonald's,West Lane,Palacefields,Runcorn,Borough of Halton,WA7 2PE,53.32787,-2.7007739
McDonald's,Wharton Retail Park,Nat Lane,Winsford,Cheshire West and Chester,CW7 3BS,53.1979388,-2.5137302
McDonald's,Whitefield Road,Bredbury,Stockport,Greater Manchester,SK6 2QR,53.4232984,-2.121458
McDonald's,1 Chester Road,Broughton,Chester,Flintshire,CH4 0DP,53.1687995,-2.9766326
McDonald's,Yew Tree Way,Stone Cross Lane South,Park,Warrington,WA3 3JD,53.4685253,-2.5896995
McDonald's,Wharf Street The Riverside Retail Park,,Warrington,,WA1 2GZ,53.3854484,-2.5864015
McDonald's,Macon Way,,Crewe,Cheshire East,CW1 6DR,53.0917604,-2.4306578
McDonald's,Sandy Lane,,Stockport,Greater Manchester,SK5 7NZ,53.4203629,-2.1598833
McDonald's,Middlewich Road,,Sandbach,Cheshire East,CW11 1DH,53.1440516,-2.3684903
McDonald's,260 London Road,Hazel Grove,Stockport,Greater Manchester,SK7 4RD,53.3779786,-2.1178399
McDonald's,Widnes Road,,Widnes,Borough of Halton,WA8 6AH,53.3653407,-2.7303578
McDonald's,100 Dunwoody Way,,Crewe,Cheshire East,CW1 3AW,53.0984296,-2.4552744
McDonald's,Manchester Road,,Northwich,Cheshire West and Chester,CW9 5ND,53.2629893,-2.4932287
McDonald's,M56,,Chester,Cheshire West and Chester,CH2 4QZ,53.2685639,-2.8032493
McDonald's,Earle Road,,Widnes,Borough of Halton,WA8 0TA,53.3638304,-2.7221874
McDonald's,543-551 Fishponds Road,,Bristol,Bristol City,BS16 3AF,51.4765917,-2.539611
McDonald's,105 The Horsefair,Broadmead,Bristol,Bristol City,BS1 3JR,51.4589747,-2.5876149
McDonald's,Cribbs Causeway,Patchway,Bristol,South Gloucestershire,BS10 7UA,51.5256747,-2.6067831
McDonald's,Bath Road,Emery Road,Brislington,Bristol,BS4 5PF,51.4300566,-2.5387375
McDonald's,AvonMeads Shopping Park,Saint Philips Causeway,Bristol,Bristol City,BS2 0SP,51.4469486,-2.5603727
McDonald's,Highwood Lane,Patchway,Bristol,South Gloucestershire,BS34 5TQ,51.53005,-2.6001811
McDonald's,Sheene Road,Sheene Road,Bedminster,Bristol,BS3 4EG,51.4396174,-2.6004121
McDonald's,Abbeywood Retail Park,Station Road,Stoke Gifford,Bristol,BS34 7JL,51.5067619,-2.5585645
McDonald's,Hengrove Leisure Park,Hengrove Way,Hengrove,Bristol,BS14 0HR,51.4167932,-2.5885824
McDonald's,Aspects Leisure Park,Hanham,Bristol,South Gloucestershire,BS15 9LA,51.4484256,-2.4992893
McDonald's,2 Wyndham Way,Portishead,Bristol,North Somerset,BS20 7BY,51.4841142,-2.7659765
McDonald's,138 Princes Street,,Edinburgh,,EH2 4BL,55.9505977,-3.2066381
McDonald's,32 Newcraighall Rd Kinnaird Park,,Edinburgh,,EH15 3RD,55.933979,-3.1005819
McDonald's,59 London Road,Meadowbank,Edinburgh,,EH7 6AA,55.955834,-3.159925
McDonald's,6 Builyeon Road,,South Queensferry,Edinburgh,EH30 9YJ,55.9839286,-3.4068128
McDonald's,99 Gorgie Park Road,,Edinburgh,,EH11 2QL,55.936358,-3.2393552
McDonald's,74 Telford Road,,Edinburgh,,EH4 2NF,55.961286,-3.2423472
McDonald's,1-5 South Saint Andrew Street,,Edinburgh,,EH2 2AU,55.9533,-3.1914
McDonald's,Newbridge Industrial Estate,,Newbridge,Edinburgh,EH28 8LQ,55.9376676,-3.4023375
McDonald's,1-17 Glasgow Road,Gylemuir Road,Corstorphine,Edinburgh,EH12 8HW,55.9422584,-3.2935785
McDonald's,2A Straiton Mains,,Loanhead,Midlothian,EH20 9PW,55.8865279,-3.1611387
McDonald's,63 Craigentinny Avenue North,Seafield Road,Edinburgh,,EH6 7LJ,55.96868,-3.1423642
McDonald's,165/167 Trongate,,Glasgow,Glasgow City,G1 5HF,55.857254,-4.2484989
McDonald's,215 Argyle Street,,Glasgow,Glasgow City,G2 8DL,55.8582409,-4.2572317
McDonald's,Forge Shopping Centre,Gallowgate,Glasgow,Glasgow City,G31 4EB,55.8544803,-4.2035744
McDonald's,105 Sauchiehall Street,,Glasgow,Glasgow City,G2 3DD,55.8644363,-4.2567434
McDonald's,1200 Maryhill Road,Maryhill,Glasgow,Glasgow City,G20 9BA,55.8872051,-4.2846639
McDonald's,1325 Springburn Road,Springburn,Glasgow,Glasgow City,G21 1UU,55.8928519,-4.2326279
McDonald's,489 Pollokshaws Road,,Glasgow,Glasgow City,G41 2PF,55.8390534,-4.2666086
McDonald's,45 Finnieston Street The Clydeway Centre & Skypark,,Glasgow,Finnieston,G3 8JU,55.8626117,-4.280176
McDonald's,West End Retail Park,Crow Road,Partick,Glasgow,G11 7RY,55.8721855,-4.3129849
McDonald's,5 Saint Enoch Square Kiosk F1 Food Court,,Glasgow,Glasgow City,G1 4BW,55.8571751,-4.2543489
McDonald's,1841 Great Western Road,Anniesland,Cross,Glasgow,G13 2UX,55.8920896,-4.3316822
McDonald's,London Road,,Glasgow,Glasgow City,G32 8YX,55.8363063,-4.1687633
McDonald's,800 Westerhouse Road,Shandwick Street,Easterhouse,Glasgow,G34 9PE,55.8687862,-4.1200048
McDonald's,Milton Road,Kirkintilloch,Glasgow,East Dunbartonshire Council,G66 1SY,55.943241,-4.1542308
McDonald's,3 Darnley Mains Road,Nitshill,Darnley,Glasgow,G53 7RH,55.8050639,-4.3407446
McDonald's,17a Castlemilk Drive Castlemilk Shopping Arcade,,Glasgow,Glasgow City,G45 9AA,55.8066246,-4.2335989
McDonald's,18 Saint Anns Square,,Manchester,Greater Manchester,M2 7HQ,53.4821714,-2.2459407
McDonald's,Clackmannan Road,Ochilview,Alloa,Clackmannanshire,FK10 4DA,56.1154774,-3.774759
McDonald's,30/32 Regent Street,,Wrexham,Wrexham Principal Area,LL11 1SA,53.04679,-2.99616
McDonald's,20 High Street,,Rhyl,Denbighshire,LL18 1ES,53.3216884,-3.4915102
McDonald's,CHIRK RETAIL PARK,Chirk Bypass,Wrexham,Wrexham Principal Area,LL14 5AZ,52.9503202,-3.0430932
McDonald's,A547,,Abergele,Conwy Principal Area,LL22 7HZ,53.284885,-3.568856
McDonald's,JUNCTION RETAIL PARK,Junction Way,Llandudno Junction,Conwy Principal Area,LL31 9XX,53.2830355,-3.808863
McDonald's,A30 Penhale,,Saint Columb,Cornwall,TR9 6NA,50.3783002,-4.9422025
McDonald's,Long Rock Bypass,Longrock,Penzance,Cornwall,TR20 8HT,50.1297669,-5.5103454
McDonald's,Dracaena Avenue,,Falmouth,Cornwall,TR11 2ER,50.1625976,-5.0872102
McDonald's,Treloggan Road,,Newquay,Cornwall,TR7 2BB,50.402229,-5.0618097
McDonald's,Trevenson Road,Pool,Redruth,Cornwall,TR15 3PL,50.225751,-5.2767697
McDonald's,Pentewan Road,,Saint Austell,Cornwall,PL25 5BU,50.3329097,-4.792593
McDonald's,Carwin Rise,Loggans,Hayle,Cornwall,TR27 5DG,50.1970747,-5.3971827
McDonald's,Tresawls Road,Treliske,Threemilestone,Truro,TR3 6BA,50.2644613,-5.1028118
McDonald's,Unit E Callington Road,Gateway,Carkeel,Saltash,PL12 6LF,50.418136,-4.233991
McDonald's,Hillsborough Road Sprucefield Shopping Centre,,Lisburn,Lisburn and Castlereagh,BT27 5UN,54.4920904,-6.0608963
McDonald's,5 Longwood Road,,Newtownabbey,Belfast,BT37 9UL,54.6548646,-5.917211
McDonald's,Westwood Centre Kennedy Way,,Belfast,,BT11 9AP,54.5752601,-5.9758276
McDonald's,Antrim Road,Glengormley,Newtownabbey,Antrim and Newtownabbey,BT36 7QT,54.668928,-5.9554354
McDonald's,Connswater Retail Park,,Belfast,,BT5 4AF,54.5963178,-5.8917007
McDonald's,North Road,,Ballymena,Mid and East Antrim,BT43 5EY,54.8648009,-6.2800378
McDonald's,9 Rodgers Quay,,Carrickfergus,Mid and East Antrim,BT38 8BE,54.7125634,-5.8135902
McDonald's,Saintfield Road,Carryduff,Belfast,Lisburn and Castlereagh,BT8 8EU,54.530848,-5.895236
McDonald's,The Meadows Shopping Centre,Meadow Lane,Portadown,Craigavon,BT62 3TN,54.4201572,-6.438473
McDonald's,8 Edward Street,Lurgan,Craigavon,"Armagh City, Banbridge and Craigavon",BT66 6DB,54.4618948,-6.3421858
McDonald's,4 Central Way Rushmere Retail Park,,Craigavon,"Armagh City, Banbridge and Craigavon",BT64 1AT,54.4500704,-6.3923173
McDonald's,Bloomfield Shopping Centre,South Circular Road,Bangor,Ards and North Down,BT19 7HB,54.6471332,-5.6584533
McDonald's,919 Upper Newtownards Road,Dundonald,Belfast,Lisburn and Castlereagh,BT16 1RQ,54.5946449,-5.8088289
McDonald's,Ballydugan Road,,Downpatrick,"Newry, Mourne and Down",BT30 6DR,54.3239005,-5.7216399
McDonald's,Damolly Retail Park,Armagh Road,Newry,"Newry, Mourne and Down",BT35 6PR,54.1914669,-6.3504285
McDonald's,5 Circular Road Ards Shopping Centre,,Newtownards,Ards and North Down,BT23 4EU,54.5920602,-5.7080967
McDonald's,The Outlet Bridgewater Park,Cascum Road,Banbridge,"Armagh City, Banbridge and Craigavon",BT32 4GJ,54.3333096,-6.2769642
McDonald's,Burn Road,,Hartlepool,,TS25 1PN,54.6794744,-1.2111087
McDonald's,Arnison Retail Centre,Pity Me,Durham,County Durham,DH1 5GD,54.8082475,-1.5799623
McDonald's,Morton Park,Morton Park Way,Darlington,,DL1 4PJ,54.5187383,-1.5011489
McDonald's,A167,Coatham Mundeville,Darlington,County Durham,DL1 3NL,54.5857218,-1.563755
McDonald's,Wolviston Services,Coal Lane,Billingham,Stockton-on-Tees,TS22 5PZ,54.6282407,-1.3077885
McDonald's,Surtees Road Castle Dene Shopping Centre,,Peterlee,County Durham,SR8 5HA,54.7597856,-1.3316066
McDonald's,Thinford Roundabout,,Durham,County Durham,DL17 8RU,54.7047142,-1.5666728
McDonald's,Court Business Park,,Consett,County Durham,DH8 5XP,54.8490833,-1.8379529
McDonald's,Dalton Park Unit 110,Murton,Seaham,County Durham,SR7 9HU,54.8144884,-1.3765918
McDonald's,Abraham Retail Park,Saint Helen Auckland,Tindale Crescent,Bishop Auckland,DL14 9TT,54.6406499,-1.6933675
McDonald's,North Road Industrial Estate,Meynell Road,Darlington,,DL3 0YQ,54.538006,-1.5568417
McDonald's,Clifford Road,,Stanley,County Durham,DH9 0XG,54.8686951,-1.6965122
McDonald's,A1(M),Bowburn,Durham,County Durham,DH6 5NP,54.7286733,-1.5224825
McDonald's,14,Dublin Road,Enniskillen,Fermanagh and Omagh,BT74 6HJ,54.343569,-7.6297676
McDonald's,8 Riverside Park East,,Coleraine,Somerset,BT51 3NA,55.1221697,-6.6738322
McDonald's,19 Orchard Street,,Londonderry,Derry and Strabane,BT48 6XY,54.9947583,-7.3189161
McDonald's,200 Strand Road,,Londonderry,Derry and Strabane,BT48 7PU,55.0112568,-7.314961
McDonald's,8 Crescent Link Kilfennan,,Londonderry,Derry and Strabane,BT47 6SA,54.9989569,-7.2746807
McDonald's,Dromore Road,,Omagh,Fermanagh and Omagh,BT78 1QZ,54.594802,-7.311911
McDonald's,Sweep Road,,Cookstown,Mid Ulster,BT80 8JR,54.6336911,-6.7439558
McDonald's,The Oaks Centre,Oaks Road,Dungannon,Mid Ulster,BT71 4AR,54.512509,-6.763955
McDonald's,71 Stricklandgate,,Kendal,Cumbria,LA9 4LT,54.3294444,-2.7469444
McDonald's,148-150 Dalton Road,,Barrow-in-Furness,Cumbria,LA14 1PU,54.1136162,-3.224972
McDonald's,Derwent Drive,Derwent Howe Industrial Estate,Workington,Cumbria,CA14 3YW,54.6418438,-3.5653493
McDonald's,Grearshill Road,Kingstown,Carlisle,Cumbria,CA3 0ET,54.9263265,-2.9475572
McDonald's,Hollywood Retail Park,Hindpool Road,Barrow-in-Furness,Cumbria,LA14 2NA,54.1146833,-3.2372795
McDonald's,Bridge Retail Park,,Whitehaven,Cumbria,CA28 7RW,54.5445668,-3.5838799
McDonald's,Ullswater Road Penrith Railway Station,,Penrith,Cumbria,CA11 7JQ,54.662466,-2.7581122
McDonald's,M6 Roadchef Motorway Services,,Kendal,Cumbria,LA8 0NW,54.3139684,-2.6350709
McDonald's,Bonnyrigg Road,,Dalkeith,Midlothian,EH22 3FU,55.8816264,-3.0866184
McDonald's,M1 Meltham Lane,,Chesterfield,Duckmanton,S44 5HB,53.2439512,-1.3332449
McDonald's,42-44 Saint Peters Street,,Derby,,DE1 1SH,52.9208436,-1.4762905
McDonald's,33 Low Pavement,,Chesterfield,Derbyshire,S40 1PB,53.235005,-1.4281344
McDonald's,181-193 Osmaston Park Road,Allenton,Derby,Derbyshire,DE24 8BT,52.896861,-1.4711913
McDonald's,Wyvern Retail Park,Wyvern Way,Chaddesden,Derby,DE21 6NZ,52.9180315,-1.4353653
McDonald's,Kingsway,Markeaton Lane,Derby,,DE22 4AA,52.9286337,-1.5061263
McDonald's,1,Derby Road,Chesterfield,Derbyshire,S40 2ED,53.2290363,-1.4229742
McDonald's,Tallys End,Chesterfield Road,Barlborough,Chesterfield,S43 4WP,53.2844398,-1.2913456
McDonald's,Hockley Way,Nottingham Road,Somercotes,Alfreton,DE55 7FA,53.0882313,-1.3760476
McDonald's,Belmont Street,,Swadlincote,Derbyshire,DE11 8JU,52.7753367,-1.5546054
McDonald's,29 SOUTH Newtonwood Lane,,Alfreton,Derbyshire,DE55 5TZ,53.1360828,-1.3328551
McDonald's,Berristow Lane,South Normanton,Alfreton,Derbyshire,DE55 2EG,53.1091969,-1.3172434
McDonald's,Rutland Street,,Ilkeston,Derbyshire,DE7 8DG,52.9782606,-1.3044962
McDonald's,29 SOUTH Newtonwood Lane,,Alfreton,Derbyshire,DE55 5TZ,53.1360828,-1.3328551
McDonald's,Linville Close,,Derby,,DE21 7HX,52.9014779,-1.4254909
McDonald's,43 Bakewell Road,,Matlock,Derbyshire,DE4 3AU,53.1405822,-1.5621479
McDonald's,Derby Road,Clay Cross,Chesterfield,Derbyshire,S45 9AG,53.1733337,-1.4158769
McDonald's,190 High Street,,Exeter,Devon,EX4 3DU,50.7228202,-3.532508
McDonald's,114 Union Street,,Torquay,Torbay,TQ2 5PY,50.4674734,-3.5311975
McDonald's,17 New George Street,,Plymouth,,PL1 1QZ,50.3712074,-4.1398819
McDonald's,Eastern Avenue,Hollowtree Road,Barnstaple,Devon,EX32 8PB,51.0752133,-4.0446633
McDonald's,Coypool Road,Marsh Mills,Plymouth,,PL7 4TB,50.3919488,-4.0833634
McDonald's,Torquay Road,Penn Inn Roundabout,Newton Abbot,Devon,TQ12 1BN,50.5244463,-3.5947288
McDonald's,Off Pomphlett Road,Billacombe Road,Plymouth,,PL9 7BH,50.3657578,-4.1006508
McDonald's,UNIT 8 Stone Lane Retail Park,Marsh Barton Road,Marsh Barton,Exeter,EX2 8LH,50.7090621,-3.5357901
McDonald's,J28 M5,,Cullompton,Devon,EX15 1PA,50.8630436,-3.3845177
McDonald's,Bridge Retail Park,Hele Road,Torquay,Torbay,TQ2 7PY,50.4826266,-3.5490418
McDonald's,Rounds Well Retail Park,Roundswell,Barnstaple,Devon,EX31 3RY,51.0650401,-4.0851039
McDonald's,Tiverton Business Park,Lowman Way,Tiverton,Devon,EX16 6SR,50.9110227,-3.4682761
McDonald's,Liverton Business Park,Salterton Road,Exmouth,Devon,EX8 2NR,50.6307856,-3.3747645
McDonald's,Yalberton Road,,Paignton,Torbay,TQ4 7PE,50.4217477,-3.5880045
McDonald's,Clovelly Road,Atlantic Park Way,Bideford,Devon,EX39 3QU,51.0089701,-4.2390061
McDonald's,Thorne Road Retail Park,Omega Boulevard,Thorne,Doncaster,DN8 5UG,53.5456843,-1.08144
McDonald's,York Road,,Doncaster,South Yorkshire,DN5 9TP,53.5308708,-1.1469053
McDonald's,35 Old Christchurch Road,,Bournemouth,Dorset,BH1 1DS,50.720506,-1.877848
McDonald's,556 Christchurch Road,Boscombe,Bournemouth,Dorset,BH1 4BH,50.72644,-1.841
McDonald's,72-73 Saint Mary Street,,Weymouth,Dorset,DT4 8PJ,50.6090819,-2.4542404
McDonald's,103 Somerford Road,,Christchurch,Dorset,BH23 3PX,50.7380422,-1.7507093
McDonald's,Ringwood Road,,Ferndown,Dorset,BH22 9BB,50.8115583,-1.8734207
McDonald's,Retail Park,Jubilee Close,Weymouth,Dorset,DT4 7BG,50.6162686,-2.4570751
McDonald's,10 Broadstone Way,Wessex Gate Retail Park,Poole,Dorset,BH15 3TE,50.7331931,-1.9908651
McDonald's,Castle Lane West,Castlepoint,Bournemouth,Dorset,BH8 9UP,50.7532333,-1.8399604
McDonald's,Saint Pauls Road,Boscombe,Bournemouth,Dorset,BH8 8DL,50.7263532,-1.8641271
McDonald's,180/182 Alder Road,Branksome,Poole,Dorset,BH12 4AX,50.7381558,-1.9163153
McDonald's,Retail Park,Mannings Heath Road,Poole,Dorset,BH12 4QY,50.7449811,-1.9537347
McDonald's,Lochside Road,,Dumfries,Dumfries and Galloway,DG2 0DY,55.0798907,-3.6291656
McDonald's,16 Annandale Water M S A,,Lockerbie,Dumfries and Galloway,DG11 1HD,55.2199587,-3.4104106
McDonald's,Old Luss Road,Balloch,Alexandria,West Dunbartonshire Council,G83 8QP,56.000424,-4.5901579
McDonald's,2 Bellfield Interchange,SERVICES,Kilmarnock,East Ayrshire Council,KA1 5LQ,55.5973346,-4.4725907
McDonald's,Spott Road,,Dunbar,East Lothian Council,EH42 1BF,55.9883139,-2.5103219
McDonald's,121-123 Main Street,Thornliebank,Glasgow,East Renfrewshire Council,G46 7RY,55.8087439,-4.3145487
McDonald's,Wingfield Way,,Beverley,East Riding of Yorkshire,HU17 8XE,53.8242607,-0.4419933
McDonald's,51 Terminus Road The Arndale Centre,,Eastbourne,East Sussex,BN21 3QP,50.7688691,0.2831384
McDonald's,9 Wellington Place,,Hastings,East Sussex,TN34 1NY,50.8552757,0.5814455
McDonald's,De La Warr Road Ravenside Retail & Leisure Park,,Bexhill-on-Sea,East Sussex,TN40 2JS,50.8451858,0.5021286
McDonald's,29,Lottbridge Drove,Eastbourne,East Sussex,BN23 6QD,50.787004,0.3030963
McDonald's,Bellfarm Lane,Bellbrook Industrial Estate,Uckfield,East Sussex,TN22 1QL,50.9695945,0.0929139
McDonald's,5 John Macadam Way,Hastings,Saint Leonards-on-sea,East Sussex,TN37 7SQ,50.8873628,0.5490088
McDonald's,Maresfield Bypass,Maresfield,Uckfield,East Sussex,TN22 5EP,50.9892288,0.0897379
McDonald's,16 Blake Street,,York,,YO1 8QG,53.960732,-1.084728
McDonald's,Saint Andrews Quay,Clive Sullivan Way,Hull,Kingston upon Hull,HU3 4SA,53.7278336,-0.3748146
McDonald's,Clifton Moor Centre,Hurricane Way,Rawcliffe,York,YO30 4XU,53.9915571,-1.1094794
McDonald's,Tadcaster Road York,Bilbrough,York,North Yorkshire,YO23 3PP,53.9064821,-1.185817
McDonald's,Willerby Shopping Park,Grange Park Lane,Hull,East Riding of Yorkshire,HU10 6EB,53.7625337,-0.4556597
McDonald's,Rawcliffe Road,Airmyn,Goole,East Riding of Yorkshire,DN14 8JS,53.7049303,-0.9143281
McDonald's,Ennerdale,Roebank Roundabout,Hull,Kingston upon Hull,HU7 6EA,53.7926392,-0.3502607
McDonald's,Saint Nicholas Avenue,Fulford,York,,YO19 4TA,53.921939,-1.077496
McDonald's,Kingston Shopping Centre,Holderness Road,Hull,Kingston upon Hull,HU9 2AA,53.7532877,-0.3131706
McDonald's,Bessingby Industrial Estate,Bessingby Way,Bridlington,East Riding of Yorkshire,YO16 4SJ,54.0825952,-0.2080175
McDonald's,390 Cottingham Road,,Hull,Kingston upon Hull,HU6 8QE,53.7703031,-0.3820703
McDonald's,Kingswood Retail Park,Bude Road,Hull,Kingston upon Hull,HU7 4HS,53.7946182,-0.3461985
McDonald's,Mayflower Retail Park,Gardiners Lane South,Basildon,Essex,SS14 3HZ,51.591499,0.4808611
McDonald's,79 Eastgate Centre,,Basildon,Essex,SS14 1AF,51.5698116,0.4604078
McDonald's,231/233 High Road,,Ilford,Greater London,IG1 1NE,51.559856,0.0768396
McDonald's,74 High Street,,Southend-on-Sea,,SS1 1JF,51.5366001,0.713949
McDonald's,129 South Street,,Romford,Greater London,RM1 1NX,51.575472,0.183387
McDonald's,30 Broad Walk,,Harlow,Essex,CM20 1JA,51.7695696,0.0942895
McDonald's,37 High Street,,Colchester,Essex,CO1 1DH,51.8896164,0.8997036
McDonald's,41 East Street,,Barking,Greater London,IG11 8ER,51.5373622,0.078567
McDonald's,Lakeside Retail Park,Cygnet View,West Thurrock,Grays,RM20 1TX,51.4864028,0.276867
McDonald's,Whalebone Lane South,,Dagenham,Greater London,RM8 1AT,51.5652693,0.145155
McDonald's,21 High Street,Barkingside,Ilford,Greater London,IG6 2AW,51.5888579,0.0806496
McDonald's,UNIT 344 Lakeside shopping centre,West Thurrock,Grays,Thurrock,RM20 2ZH,51.4873623,0.2836791
McDonald's,2 Ballards Road,New Road,Dagenham,Greater London,RM10 9LU,51.529229,0.155216
McDonald's,Mercury Gardens Mercury Mall Shopping Centre,,Romford,Greater London,RM1 3EE,51.5794389,0.1855951
McDonald's,37 High Street,,Chelmsford,Essex,CM1 1BE,51.732509,0.47468
McDonald's,164 High Street,,Southend-on-Sea,,SS1 1JX,51.539708,0.712855
McDonald's,Cowdray Avenue,,Colchester,Essex,CO1 1US,51.8974327,0.9068671
McDonald's,Drovers Way Boreham Interchange,Springfield,Chelmsford,Essex,CM2 5PS,51.7552397,0.5181558
McDonald's,Stanford Road B P Service Area,Orsett,Grays,Thurrock,RM16 3BJ,51.5098873,0.3964791
McDonald's,A120 Galley Roundabout,,Braintree,Essex,CM77 8EZ,51.8676838,0.5812405
McDonald's,Unit 7,,Harlow,Essex,CM20 2AB,51.7825392,0.1081397
McDonald's,High Road Pitsea Retail Park,,Basildon,Pitsea,SS13 3AX,51.5643103,0.5064894
McDonald's,Eastern Avenue,Horns Road,Newbury Park,Ilford,IG2 7RH,51.5738933,0.0842343
McDonald's,Fullbridge Road,,Maldon,Heybridge,CM9 4LE,51.7370375,0.6793976
McDonald's,Thurrock Park Way,,Tilbury,Thurrock,RM18 7HZ,51.4690333,0.3474782
McDonald's,Dagenham Leisure Park,Cook Road,Dagenham,Greater London,RM9 6UQ,51.53182,0.13676
McDonald's,Claydons Lane,,Rayleigh,Essex,SS6 7UP,51.5758157,0.6023195
McDonald's,Festival Leisure Park,Cranes Farm Road,Basildon,Essex,SS14 3WE,51.5834857,0.4653636
McDonald's,Riverside Retail Park,Victoria Road South,Chelmsford,Essex,CM1 1AN,51.7380055,0.4798795
McDonald's,1,London Road,Hastingwood,Harlow,CM17 9LH,51.7418294,0.1344091
McDonald's,Staple Tye Shopping Centre,Southern Way,Harlow,Essex,CM18 7PJ,51.7536984,0.093106
McDonald's,700 High Road,Seven Kings,Ilford,Greater London,IG3 8RS,51.5649582,0.1036217
McDonald's,Highbridge Retail Park,HIGH BRIDGE ROAD,Waltham Abbey,Essex,EN9 1BY,51.6863914,-0.0099593
McDonald's,Gallows Corner,Bryant Avenue,Harold Wood,Romford,RM3 0AP,51.5894017,0.2199762
McDonald's,Colchester Road,Weeley,Clacton-on-Sea,Essex,CO16 9AD,51.8595089,1.1039835
McDonald's,A127,A127,Basildon,Essex,SS15 4DP,51.5842158,0.4241288
McDonald's,10 The Brewery,,Romford,Greater London,RM1 1AU,51.5748545,0.1797273
McDonald's,Whalebone Lane North,Marks Gate,Dagenham,Romford,RM6 5QT,51.5894805,0.1423835
McDonald's,124 High Street,Hadleigh,Benfleet,Essex,SS7 2PB,51.5525653,0.6092364
McDonald's,1-10 Queen elizabeth Square,South Woodham Ferrers,Chelmsford,Essex,CM3 5SY,51.6438519,0.6176884
McDonald's,Tollgate West,,Colchester,Essex,CO3 8RG,51.8842929,0.8320729
McDonald's,Southgate Road,A120,Stansted,Essex,CM24 1PY,51.8753988,0.249544
McDonald's,A12 Colchester Stadium,Mile End,Colchester,Essex,CO4 5HH,51.9251215,0.8975197
McDonald's,48 Robjohns Road,,Chelmsford,Essex,CM1 3AF,51.7220076,0.4498909
McDonald's,Essex Regiment Way,Little Waltham,Chelmsford,Essex,CM3 3PZ,51.7716461,0.4869038
McDonald's,A133 Hartley Brook Road,,Clacton-on-Sea,Essex,CO15 4EF,51.8104823,1.1440078
McDonald's,UNIT 1 Williamsburg Avenue,,Harwich,Essex,CO12 4GA,51.9393148,1.2599655
McDonald's,Falkirk Road,Earl's Gate Roundabout,Grangemouth,Falkirk,FK3 8XP,56.011607,-3.7467294
McDonald's,Bankhead Park,,Glenrothes,Fife,KY7 6GH,56.183167,-3.146112
McDonald's,Chapel Park Fife Central Retail Park 17,,Kirkcaldy,Fife,KY2 6QL,56.1336446,-3.2010604
McDonald's,Fife Leisure Park,Whimbrel Place,Dunfermline,Fife,KY11 8EX,56.078565,-3.3982186
McDonald's,Carberry Place,Mitchelston Industrial Estate,Kirkcaldy,Fife,KY1 3NG,56.1346179,-3.144919
McDonald's,Halbeath Road,,Dunfermline,Fife,KY11 4LP,56.080797,-3.4136746
McDonald's,Riverside Road,,Leven,Fife,KY8 4LT,56.1941452,-3.001666
McDonald's,Northop Services,A55,Northop,Deeside,CH7 6HB,53.1920985,-3.0812375
McDonald's,Holywell Road,,Flint,Flintshire,CH6 5GB,53.250785,-3.1359974
McDonald's,31,,Junction,Lloc,CH8 8RF,53.2737439,-3.3052369
McDonald's,King Street,,Mold,Flintshire,CH7 1LA,53.1693686,-3.1382808
McDonald's,Aston Road,,Deeside,Flintshire,CH5 1TP,53.2045669,-3.0291565
McDonald's,Merthyr Tydfil Leisure Village,A4102,Merthyr Tydfil,Merthyr Tydfil County Borough,CF48 1UT,51.739332,-3.3781611
McDonald's,1 Oxford Street,,Swansea,,SA1 3AE,51.6201198,-3.94307
McDonald's,12/14 Queen Street,,Cardiff,,CF10 2BU,51.4815479,-3.1782804
McDonald's,Foundry Road,Morriston,Swansea,,SA6 8DU,51.665293,-3.9206635
McDonald's,378 Newport Road,,Cardiff,,CF23 9AE,51.498351,-3.140513
McDonald's,VALEGATE RETAIL PARK,Copthorne Way,Cardiff,Vale of Glamorgan,CF5 6EH,51.4642179,-3.2739635
McDonald's,Longwood Drive,,Cardiff,,CF14 7HY,51.5241183,-3.2440674
McDonald's,A465 Northbound,Skewen,Neath,Neath Port Talbot Principle Area,SA10 7DR,51.6533848,-3.8409611
McDonald's,Old Road,Baglan,Neath,Neath Port Talbot Principle Area,SA11 2YW,51.6285191,-3.8199845
McDonald's,Crossways,Parc Pontypandy,Caerphilly,Caerphilly County Borough,CF83 3NL,51.5889339,-3.2103007
McDonald's,A473 Pontyclun,,Pontyclun,Talbot Green,CF72 8RP,51.5332691,-3.3790195
McDonald's,Cardiff Bay Retail Park,Ferry Road,Cardiff,,CF11 0JR,51.4566943,-3.1864928
McDonald's,Cardiff Road Ty Verlon Industrial Estate,,Barry,Vale of Glamorgan,CF63 2BE,51.4152379,-3.2315412
McDonald's,M4,Penllergaer,Swansea,,SA4 9GT,51.6777468,-3.9972368
McDonald's,Carmarthen Road Cwmdu Retail Park,,Swansea,Gendros,SA5 8LJ,51.6364466,-3.9671593
McDonald's,Off Excelsior Road,Western Avenue,Cardiff,,CF14 3AT,51.4995072,-3.2027773
McDonald's,Fabian Way,Port Tennant,Swansea,,SA1 8LD,51.6204966,-3.9106591
McDonald's,Swansea Road Cyfartha Retail Park,,Merthyr Tydfil,Merthyr Tydfil County Borough,CF48 1HY,51.750194,-3.3957178
McDonald's,283 Milngavie Road,Bearsden,Glasgow,East Dunbartonshire Council,G61 3DQ,55.9316804,-4.3169335
McDonald's,Kings Inch Drive Braehead Retail Park,,Glasgow,Renfrewshire,G51 4BT,55.872802,-4.360174
McDonald's,Dalmarnock Road Dalmarnock Trading Estate,,Glasgow,Rutherglen,G73 1AE,55.8364982,-4.2097155
McDonald's,Bristol Road,Hardwicke,Gloucester,Gloucestershire,GL2 2RQ,51.8049485,-2.2897702
McDonald's,226 High Street,,Cheltenham,Gloucestershire,GL50 3HF,51.901918,-2.076234
McDonald's,22 Westgate Street,,Gloucester,Gloucestershire,GL1 2NG,51.865932,-2.246468
McDonald's,337 Bristol Road,,Gloucester,Gloucestershire,GL2 5DN,51.8383018,-2.2697653
McDonald's,Kingsditch Retail park,Tewkesbury Road,Cheltenham,Gloucestershire,GL51 9PX,51.9142905,-2.0993063
McDonald's,Northbrook Road,Barnwood,Gloucester,Gloucestershire,GL4 3DP,51.8621391,-2.2155629
McDonald's,Cricklade Road,,Cirencester,Gloucestershire,GL7 1NP,51.7071722,-1.9545803
McDonald's,A46,,Stroud,Gloucestershire,GL5 3BE,51.7455883,-2.2198372
McDonald's,38-40,West Walk,Yate,Bristol,BS37 4AX,51.5408018,-2.4152027
McDonald's,Saint Oswalds Road Gavel Way,,Gloucester,Gloucestershire,GL1 2UE,51.8730723,-2.2479363
McDonald's,Neasden Lane,,London,Greater London,NW10 0EA,51.5628307,-0.2589035
McDonald's,3 Pettman Crescent,,London,Greater London,SE28 0FF,51.4908791,0.0854462
McDonald's,619 Purley Way Unit 7A Colonnades,,Croydon,Greater London,CR0 4RQ,51.3567334,-0.1151675
McDonald's,1,Crayford Road,Crayford,Dartford,DA1 4LD,51.4504152,0.1813614
McDonald's,90 North End,,Croydon,Greater London,CR0 1UJ,51.3750655,-0.1016966
McDonald's,484 High Road,,Wembley,Greater London,HA9 7BH,51.553358,-0.2949446
McDonald's,200/202 High Street,,Hounslow,Greater London,TW3 1HE,51.4688118,-0.3628386
McDonald's,168/172 High Street,,Sutton,Greater London,SM1 1NL,51.365156,-0.1936961
McDonald's,4/5 Market Chambers,Church Street,Enfield,Greater London,EN2 6AA,51.6521428,-0.0826068
McDonald's,62 High Street,,Staines,Surrey,TW18 4DY,51.4342078,-0.5110227
McDonald's,363 Station Road,,Harrow,Greater London,HA1 2AW,51.5796699,-0.3342681
McDonald's,125 High Street,,Uxbridge,Greater London,UB8 1JT,51.5483169,-0.4810221
McDonald's,65 Broadway,,Bexleyheath,Greater London,DA6 7JN,51.4559564,0.1473602
McDonald's,293 High Street,,Orpington,Greater London,BR6 0NN,51.37415,0.09845
McDonald's,88 High Street,,Sidcup,Greater London,DA14 6DS,51.4262128,0.1020983
McDonald's,22-24 Station Road,,Hayes,Greater London,UB3 4DA,51.5063795,-0.4192549
McDonald's,77/83 High Street,,New Malden,Greater London,KT3 4BT,51.40128,-0.25642
McDonald's,71 Victoria Road,,Surbiton,Greater London,KT6 4NR,51.392258,-0.305977
McDonald's,38 Bellegrove Road,,Welling,Greater London,DA16 3PY,51.463096,0.1048649
McDonald's,67/69 Church Street,,Croydon,Greater London,CR0 1RH,51.3733231,-0.1036464
McDonald's,15 Mondial Way,Bath Road,Harlington,Hayes,UB3 5AR,51.4813883,-0.4431475
McDonald's,935-943 London Road,,Thornton Heath,Greater London,CR7 6XJ,51.3983718,-0.1168895
McDonald's,30 The Quadrant,,Richmond,Greater London,TW9 1DN,51.4624673,-0.3025026
McDonald's,Compton Place,Avenue Road,Erith,Greater London,DA8 1RN,51.4784286,0.1807803
McDonald's,2 Bedfont Lane,Hounslow Road,Feltham,Greater London,TW13 4AE,51.4471616,-0.4095768
McDonald's,Lombardy Retail Park,Coldharbour Lane,Hayes,Greater London,UB3 3EX,51.5173407,-0.4064381
McDonald's,Twickenham Road,Twickenham,Feltham,Greater London,TW13 6HB,51.4368612,-0.3772642
McDonald's,480 Bath Road,,Hounslow,Greater London,TW5 9UW,51.4754643,-0.3970268
McDonald's,29 St Anns Road,,Harrow,Greater London,HA1 1HS,51.581247,-0.3394848
McDonald's,Valley Leisure Park Hesterman Way,,Croydon,Greater London,CR0 4YA,51.3777614,-0.1248046
McDonald's,400 Bath Road,Longford,Uxbridge,Greater London,UB7 0EA,51.4820289,-0.4807329
McDonald's,Uxbridge Road,Iron Bridge Close,Southall,Greater London,UB1 3EG,51.5097795,-0.3549497
McDonald's,1340 Mollison Avenue,Brimsdown,Enfield,Greater London,EN3 7NJ,51.6565695,-0.0301203
McDonald's,322 High Street,,Brentford,Greater London,TW8 0JS,51.4861736,-0.2988853
McDonald's,154 Stonegrove,,Edgware,Greater London,HA8 8AF,51.6214583,-0.2916276
McDonald's,2,Great Cambridge Road,Enfield,Greater London,EN1 3FD,51.651755,-0.0593841
McDonald's,126 Wembley Park Drive,Wembley Park,Wembley,Greater London,HA9 8TS,51.5616166,-0.2813086
McDonald's,415 Purley Way,Waddon,Croydon,Greater London,CR0 4NX,51.3674097,-0.1183689
McDonald's,585 London Road,North Cheam,Worcester Park,Sutton,SM3 9AG,51.373248,-0.2259871
McDonald's,170 The Broadway,,Southall,Greater London,UB1 1NN,51.5125543,-0.3842191
McDonald's,47-51 Oldfields Road,,Sutton,Greater London,SM1 2NB,51.3741719,-0.2055027
McDonald's,Shaftesbury Circle,South Harrow,Harrow,Greater London,HA2 0AG,51.5727045,-0.3537451
McDonald's,518/522 Wickham Road,,Croydon,Greater London,CR0 8DN,51.3765208,-0.03492
McDonald's,37 Oxford Road,Denham,Uxbridge,Buckinghamshire,UB9 4DA,51.5531983,-0.4890831
McDonald's,124 The chimes shopping centre,,Uxbridge,Greater London,UB8 1GA,51.5456377,-0.4776179
McDonald's,Marlowe Way,Wallington,Croydon,Greater London,CR0 4XS,51.3767696,-0.1301981
McDonald's,41 Standishgate,,Wigan,Greater Manchester,WN1 1UP,53.5482422,-2.630002
McDonald's,336 Wilmslow Road,Fallowfield,Manchester,Greater Manchester,M14 6XQ,53.4402767,-2.2204271
McDonald's,38 Oxford Street,,Manchester,Greater Manchester,M1 5EJ,53.475984,-2.2428057
McDonald's,28 Middleton Gardens,Middleton,Manchester,Greater Manchester,M24 4DF,53.548592,-2.201407
McDonald's,129 Stockport Road,Ardwick,Manchester,Greater Manchester,M12 4AB,53.4672485,-2.217854
McDonald's,316 Barlow Moor Road,Chorlton-cum-Hardy,Manchester,Greater Manchester,M21 8AY,53.4365667,-2.2730787
McDonald's,3 Cross Lane,,Salford,Greater Manchester,M5 4BN,53.4853832,-2.2769336
McDonald's,103 Bury New Road,Whitefield,Manchester,Greater Manchester,M45 7EG,53.5431463,-2.2911489
McDonald's,Gower Street,Newtown,Wigan,Greater Manchester,WN5 9AD,53.540167,-2.649671
McDonald's,centre Retail Park,Royton,Oldham,Greater Manchester,OL2 5HX,53.5572526,-2.1383551
McDonald's,849A Princess Road,Mersey Crescent,Manchester,Greater Manchester,M20 2ZF,53.4203429,-2.2590188
McDonald's,21 Wall Way,Gorton,Manchester,Greater Manchester,M18 7WY,53.4593368,-2.1614748
McDonald's,552,Worthington Way,Wigan,Greater Manchester,WN3 6XA,53.5201779,-2.6529216
McDonald's,Neary Way,Barton Road,Trafford Park,Manchester,M41 7FP,53.4625751,-2.3580396
McDonald's,447 Bolton Road,Pendlebury,Manchester,Greater Manchester,M27 8BB,53.5139383,-2.3235798
McDonald's,Riverside Retail Park,Regent Road,Salford,Greater Manchester,M5 4TJ,53.4754487,-2.2652792
McDonald's,Stockport Road,Hattersley,Mottram in Longdendale,Hyde,SK14 3AU,53.4533074,-2.0247235
McDonald's,13 Rowlandsway,Civic Centre,Wythenshawe,Manchester,M22 5RG,53.3801836,-2.2606183
McDonald's,674 Altrincham Road,Wythenshawe,Manchester,Greater Manchester,M23 9AA,53.4003348,-2.2891845
McDonald's,317 Bury New Road,,Salford,Greater Manchester,M7 2YN,53.5017083,-2.2581354
McDonald's,Liverpool Road,Platt Bridge,Wigan,Greater Manchester,WN2 5BD,53.520703,-2.5973108
McDonald's,1093 Stockport Road Monarch Leisure Park,,Manchester,Greater Manchester,M19 2RE,53.4353569,-2.1836874
McDonald's,2 Gibbon Street,,Manchester,Greater Manchester,M11 4TA,53.4846949,-2.1960549
McDonald's,West One Retail Park,Gilda Brook Road,Eccles,Manchester,M50 1ZD,53.4815932,-2.330145
McDonald's,419 Oxford Road,,Manchester,Greater Manchester,M13 9WG,53.4626675,-2.2295101
McDonald's,Worthington Way Crown Point North Shopping Park,Denton,Manchester,Greater Manchester,M34 3JP,53.4587233,-2.1158216
McDonald's,Barton Dock Road,Trafford Park,Stretford,Manchester,M41 7ZA,53.4689948,-2.3451022
McDonald's,100 Princess Road,Hulme,Manchester,Greater Manchester,M15 5AS,53.4611478,-2.2460893
McDonald's,Morris Street,,Wigan,Greater Manchester,WN1 3RB,53.548503,-2.62394
McDonald's,11-13 Piccadilly,,Manchester,Greater Manchester,M1 1LY,53.4817762,-2.2373728
McDonald's,35 High Street,,Newport,,NP20 1GF,51.588198,-2.997158
McDonald's,RETAIL PARK,Seven Stiles Avenue,Newport,,NP19 4QR,51.5741525,-2.945281
McDonald's,The Walk,,Ebbw Vale,Blaenau Gwent,NP23 6AY,51.7765515,-3.205859
McDonald's,Harlech retail park,Cardiff Road,Newport,,NP20 3BA,51.574505,-3.0090293
McDonald's,Coldra Roundabout,,Newport,,NP18 2NX,51.602691,-2.923716
McDonald's,Lyne Road,,Newport,,NP20 5JG,51.5960267,-2.9970342
McDonald's,Ebbw Close,Rogerstone,Bassaleg,Newport,NP10 9HZ,51.5972927,-3.0770834
McDonald's,Pencarn Way,Duffryn,Newport,,NP10 8XL,51.5567136,-3.0211667
McDonald's,South Road,,Caernarfon,Gwynedd,LL55 2HS,53.1340784,-4.2695824
McDonald's,Caernarfon Road Britannia Shopping Centre,,Bangor,Gwynedd,LL57 4SU,53.2132047,-4.1451999
McDonald's,Salisbury Road,Ower,Romsey,Hampshire,SO51 6GF,50.9553778,-1.5363098
McDonald's,23 Union Street,,Aldershot,Hampshire,GU11 1EP,51.2493187,-0.7654678
McDonald's,223 Commercial Road,,Portsmouth,,PO1 4BJ,50.8027568,-1.0881559
McDonald's,The Swan Centre Wells Place,,Eastleigh,Hampshire,SO50 5SG,50.9672956,-1.3540057
McDonald's,31-33 West Street,,Havant,Hampshire,PO9 1ER,50.8514881,-0.9844322
McDonald's,5 Market Place,,Basingstoke,Hampshire,RG21 7QA,51.2622557,-1.0867881
McDonald's,69 Saint George's Street,,Winchester,Hampshire,SO23 8BG,51.0626733,-1.3133999
McDonald's,189-191 Fleet Road,,Fleet,Hampshire,GU51 3BL,51.2820335,-0.8408403
McDonald's,363 Shirley Road,Shirley,Southampton,,SO15 3JD,50.9188041,-1.428542
McDonald's,Farnborough Gate,Blackwater Shopping Centre,Farnborough,Hampshire,GU14 8BL,51.3086631,-0.7484244
McDonald's,Harbour Parade,west quay retail park,Southampton,,SO15 1BA,50.9048137,-1.4139144
McDonald's,Hill Retail Park,,Basingstoke,Hampshire,RG22 4AN,51.2518625,-1.1088985
McDonald's,75/77 High Road,Swaythling,Southampton,,SO16 2JE,50.9391231,-1.3802549
McDonald's,Portsmouth Road,Cosham,Portsmouth,,PO6 2SW,50.8384767,-1.0702942
McDonald's,Apex Centre Speedfields Park,Newgate Lane,Fareham,Hampshire,PO14 1TZ,50.8346398,-1.1869032
McDonald's,Green Park Road,Millbrook,Southampton,,SO16 9SH,50.9181143,-1.4573856
McDonald's,Ocean Retail Park,Burrfields Road,Portsmouth,,PO3 5NP,50.8170658,-1.0540303
McDonald's,Winchester Road,,Petersfield,Hampshire,GU32 3BS,51.0086501,-0.9524036
McDonald's,Basingstoke Leisure Park,Worting Road,Basingstoke,Hampshire,RG22 6PG,51.2647354,-1.1155448
McDonald's,M27,,Southampton,Hampshire,SO16 8AP,50.9563739,-1.4481502
McDonald's,West Portway Industrial Estate,Joule Road,Andover,Hampshire,SP10 3UX,51.2118821,-1.5165138
McDonald's,Larchwood Avenue,,Havant,Hampshire,PO9 3QW,50.8639343,-1.0116138
McDonald's,A31,Picket Post,Ringwood,Hampshire,BH24 3HN,50.8547841,-1.7304882
McDonald's,A34,Sutton Scotney,Southbound,Hampshire,SO21 3JY,51.1563318,-1.3443572
McDonald's,A34,Sutton Scotney,Southbound,Hampshire,SO21 3JY,51.1563318,-1.3443572
McDonald's,The Tumbledown Dick,Farnborough Road,Farnborough,Hampshire,GU14 7JT,51.2931884,-0.7534026
McDonald's,97 Commercial Road,Totton,Southampton,Hampshire,SO40 3AF,50.9185792,-1.4830688
McDonald's,M27,,Southampton,Hampshire,SO16 8AP,50.9563739,-1.4481502
McDonald's,New Street,,Andover,Hampshire,SP10 1DT,51.214297,-1.4747266
McDonald's,Clement Attlee Way,Cosham,Portsmouth,,PO6 4SR,50.846715,-1.098366
McDonald's,1 North Close,,Aldershot,Hampshire,GU12 4HA,51.2421583,-0.7404179
McDonald's,Fareham Road,Brockhurst,Gate,Gosport,PO13 0AF,50.8174606,-1.1586798
McDonald's,Bournemouth Road,Chandler's Ford,Eastleigh,Hampshire,SO53 3YJ,50.9675158,-1.3901665
McDonald's,46 Commercial Street,,Hereford,Herefordshire,HR1 2DJ,52.0570941,-2.7132046
McDonald's,2,Maylands Avenue,Hemel Hempstead Industrial Estate,THE,HP2 4NW,51.7577776,-0.4363009
McDonald's,102 High Street,Chipping Barnet,Barnet,Greater London,EN5 5XQ,51.6539067,-0.2012541
McDonald's,873 Saint Albans Road,North Watford,Watford,Hertfordshire,WD25 0NH,51.692305,-0.385938
McDonald's,63 Howardsgate,,Welwyn Garden City,Hertfordshire,AL8 6BB,51.8017148,-0.2047373
McDonald's,128-130 High Street,,Watford,Hertfordshire,WD17 2BJ,51.65408,-0.394229
McDonald's,68 Comet Way The Galleria,,Hatfield,Hertfordshire,AL10 0XY,51.7628801,-0.237991
McDonald's,213 Shenley Road,,Borehamwood,Hertfordshire,WD6 1TE,51.658417,-0.271453
McDonald's,Upper Bourne End Lane,A41,Bourne End,Hemel Hempstead,HP1 2SB,51.7411377,-0.529865
McDonald's,21-23 Monkswood Way,,Stevenage,Hertfordshire,SG1 1TL,51.8948234,-0.198293
McDonald's,Jarman Fields Leisure Complex,Jarman Way,Hemel Hempstead,Hertfordshire,HP2 4JS,51.7483403,-0.4561419
McDonald's,Six Hills Way,Kings Way,Stevenage,Hertfordshire,SG1 2UA,51.9004961,-0.2085401
McDonald's,331 Saint Albans Road,North Watford,Watford,Hertfordshire,WD24 6PP,51.6771015,-0.3973293
McDonald's,A505 Nightingale Road,,Hitchin,Hertfordshire,SG5 1RQ,51.9543548,-0.2670918
McDonald's,Bell Lane,Shenley,St Albans,Hertfordshire,AL2 1BX,51.7167261,-0.2784886
McDonald's,3,Darkes Lane,Potters Bar,Hertfordshire,EN6 1AJ,51.6967964,-0.191613
McDonald's,241 London Road,Apsley,Hemel Hempstead,Hertfordshire,HP3 9SE,51.739392,-0.4726693
McDonald's,Saint Albans Retail Park,Griffiths Way,St Albans,Hertfordshire,AL1 2RJ,51.7429068,-0.3426039
McDonald's,Baldock Road,A505,Royston,Hertfordshire,SG8 9NT,52.0454369,-0.0544409
McDonald's,1 Avenue One,,Letchworth Garden City,Hertfordshire,SG6 2HB,51.9791431,-0.2075352
McDonald's,North Western Avenue,A41,Watford,Hertfordshire,WD25 8HF,51.6584983,-0.3507329
McDonald's,Saint Albans Road,Odhams Trading Estate,Watford,Hertfordshire,WD24 7RT,51.6795695,-0.3903509
McDonald's,An Aird,Camanachd Crescent,Fort William,Highland Council,PH33 6AN,56.8221264,-5.1058468
McDonald's,Linkwood Place,ABERDEEN ROAD,Elgin,Moray,IV30 1HZ,57.646462,-3.285442
McDonald's,Unit 3 Forres Road,,Nairn,Highland Council,IV12 5QF,57.581961,-3.8501171
McDonald's,Inshes Retail Park,Sir Walter Scott Drive,Inverness,Highland Council,IV2 3TW,57.4664108,-4.1920218
McDonald's,2 James Watt Way,,Greenock,Inverclyde,PA15 2AD,55.9446385,-4.7354362
McDonald's,Kingsland Road,,Holyhead,Isle of Anglesey,LL65 2HY,53.3037987,-4.6298089
McDonald's,Saint James' Street,,Newport,Isle of Wight,PO30 1LB,50.6987132,-1.2952862
McDonald's,Brading Road,,Ryde,Isle of Wight,PO33 1QG,50.710746,-1.145488
McDonald's,6 Halkett Street 23/25 Hillgrove Street Saint Helier,Saint Helier,Jersey,,JE2 4WJ,49.1843282,-2.1037579
McDonald's,Eureka Leisure Park,Rutherford Road,Ashford,Kent,TN25 4BN,51.1620973,0.8705359
McDonald's,1-3 Market Square,,Bromley,Greater London,BR1 1NA,51.4057588,0.0145253
McDonald's,94 Week Street,,Maidstone,Kent,ME14 1RL,51.2765931,0.5223953
McDonald's,223 High Street,,Chatham,Medway,ME4 4BQ,51.3820748,0.5268785
McDonald's,Spital Street Priory Shopping Cntre,,Dartford,Kent,DA1 2HR,51.4444531,0.2161535
McDonald's,97 High Street,,Margate,Kent,CT9 1JT,51.3867313,1.3813109
McDonald's,85/87 New Road,,Gravesend,Kent,DA11 0AF,51.4424048,0.3689216
McDonald's,23 West Terrace,,Folkestone,Kent,CT20 1RR,51.0779724,1.1789281
McDonald's,46 High Street,,Ashford,Kent,TN24 8TE,51.1492624,0.87356
McDonald's,High Street The Glades Shopping Centre,,Bromley,Greater London,BR1 1DN,51.403546,0.0164009
McDonald's,Sandwich Road,Whitfield,Dover,Kent,CT16 3LX,51.1549202,1.2890922
McDonald's,Maidstone Road,Swanley,Sidcup,Greater London,DA14 5JA,51.4096732,0.1442499
McDonald's,Thanet Way Chestfield,Old,Whitstable,Whitstable,CT5 3JE,51.35967,1.06374
McDonald's,76 Commercial Road,,Rochester,Medway,ME2 2AD,51.3951945,0.4930276
McDonald's,Chequers Centre,Gabriel's Hill,Water Lane,Maidstone,ME15 6AR,51.2727808,0.5245328
McDonald's,Stour Crescent,,Canterbury,Kent,CT1 1AD,51.2932984,1.1075227
McDonald's,Margate Road,Westwood,Broadstairs,Ramsgate,CT10 2QG,51.35758,1.39676
McDonald's,The Food Court,,Tunbridge Wells,Kent,TN1 2SR,51.1348585,0.266645
McDonald's,South Retail Park,Park Farm Industrial Estate,Folkestone,Kent,CT19 5GA,51.0950999,1.1658183
McDonald's,113 Hastings Road,Bromley Common,Bromley,Greater London,BR2 8NH,51.375487,0.044883
McDonald's,Orbital Park,The Parade,Willesborough,Ashford,TN24 0HT,51.1271365,0.8976032
McDonald's,7 Roman Way,,Rochester,Medway,ME2 2SS,51.3800125,0.4771911
McDonald's,Fountains Retail Park,,Tunbridge Wells,Kent,TN2 3UY,51.1563247,0.2898667
McDonald's,London Road,Greenhithe,Dartford,Greenhithe,DA9 9HY,51.4486179,0.2798239
McDonald's,Old Otford Road,Otford,Sevenoaks,Kent,TN14 5EG,51.2990265,0.1926529
McDonald's,Old Bromley Road,Downham,Bromley,Greater London,BR1 4JY,51.4214089,-0.0027299
McDonald's,Sheppey Way,,Sittingbourne,Kent,ME9 8RZ,51.351774,0.707696
McDonald's,18-20 Saint George's Street,,Canterbury,Kent,CT1 2SS,51.277578,1.082032
McDonald's,Bridge Road,,Sheerness,Kent,ME12 1RH,51.4416444,0.7594048
McDonald's,2,Mill Way,Sittingbourne,Kent,ME10 2XD,51.3439138,0.7336038
McDonald's,Beechings Way Industrial Centre,Godden Way,Gillingham,Medway,ME8 6AD,51.3800373,0.5767473
McDonald's,Anthonys Way,,Rochester,Medway,ME2 4DW,51.4005235,0.5147458
McDonald's,M20 JUNCTION 8,,Maidstone,Kent,ME17 1SS,51.2670677,0.6142365
McDonald's,Laundry Road,Minster,Ramsgate,Kent,CT12 4EU,51.3427771,1.3177384
McDonald's,474 Princes Road,,Dartford,Kent,DA1 1YT,51.437161,0.237789
McDonald's,2-8 Hart Street,,Maidstone,Kent,ME16 8RA,51.2710897,0.5170022
McDonald's,2 Hermitage Lane,,Aylesford,Kent,ME20 7PT,51.291885,0.476248
McDonald's,7-9 Cannon Lane,,Tonbridge,Kent,TN9 1PP,51.1971155,0.2841446
McDonald's,Courteney Road,Rainham,Gillingham,Medway,ME8 0FB,51.3666105,0.5817566
McDonald's,glasgow north retail park,Monument Drive,Glasgow,Glasgow City,G33 1AD,55.8909128,-4.1868666
McDonald's,M74 Hamilton Motorway Service Area,,Hamilton,South Lanarkshire,ML3 6JW,55.7871561,-4.0343314
McDonald's,80-84 Bank Hey Street The Edith Centre,,Blackpool,,FY1 4PX,53.8148084,-3.0540063
McDonald's,6 High Street,,Oldham,Greater Manchester,OL1 1JA,53.5418275,-2.1128909
McDonald's,64-66 The Rock Mill Gate Shopping Centre,,Bury,Greater Manchester,BL9 0PB,53.59404,-2.29504
McDonald's,11/15 Saint James's Street,,Burnley,Lancashire,BB11 1QL,53.7892809,-2.2410135
McDonald's,5-7 Knowsley Street,,Bolton,Greater Manchester,BL1 2AQ,53.5797553,-2.4305129
McDonald's,21/23 King William Street,Ewood,Blackburn,Blackburn with Darwen,BB1 7DJ,53.7483952,-2.4840074
McDonald's,49 Warrington Street,Ladysmith Centre,Ashton-under-Lyne,Greater Manchester,OL6 7JG,53.4886631,-2.0942446
McDonald's,174 Friargate,,Preston,Lancashire,PR1 2EJ,53.7596927,-2.7006186
McDonald's,451 THE PROMENADE,,Blackpool,,FY4 1AR,53.7982035,-3.055438
McDonald's,Pedders Way,Ashton-on-Ribble,Preston,Lancashire,PR2 2TX,53.762244,-2.7404183
McDonald's,3 Cherry Tree Road,MARTON,Blackpool,,FY4 4NY,53.8020886,-3.0107027
McDonald's,Waters Meeting Road,Astley Bridge,Bolton,Greater Manchester,BL1 8TT,53.5958361,-2.4313698
McDonald's,capitol centre,London Way,Walton-le-Dale,Preston,PR5 4AW,53.747958,-2.6782387
McDonald's,Livesey Branch Road,Ewood,Blackburn,Blackburn with Darwen,BB2 4LQ,53.7292042,-2.4924315
McDonald's,93 Derby Street,Daubhill,Bolton,Greater Manchester,BL3 6HH,53.5721587,-2.4355218
McDonald's,Morecambe Road,Morecambe,Sunnyfield,Lancashire,LA3 3AB,54.0624621,-2.8314465
McDonald's,Snipe Retail Park Manchester Road,Manchester Road,Audenshaw,Ashton-under-Lyne,OL7 0DN,53.4787061,-2.1248239
McDonald's,581 Blackburn Road,Haslingden,Accrington,Lancashire,BB5 2SB,53.7249904,-2.3278994
McDonald's,The Linkway Middlebrook Retail Park,Horwich,Bolton,Greater Manchester,BL6 6JA,53.5826434,-2.5354737
McDonald's,Burnley Road,Whitebirk,Blackburn,Blackburn with Darwen,BB1 3HR,53.7539751,-2.445447
McDonald's,Amy Johnson Way,Squires Gate,Blackpool,Lancashire,FY4 2RP,53.7789417,-3.0334106
McDonald's,Deepdale Retail Park,Blackpool Road,Preston,Lancashire,PR1 6QY,53.7728155,-2.6785831
McDonald's,Churchill Way,,Leyland,Lancashire,PR25 3LZ,53.6971209,-2.69058
McDonald's,66 Pilsworth Road,Park,Bury,Greater Manchester,BL9 8RD,53.577522,-2.2758708
McDonald's,Anchorage Road Freeport Shopping Village,,Fleetwood,Lancashire,FY7 6AE,53.9186613,-3.0120731
McDonald's,Lucas Street,,Oldham,Greater Manchester,OL4 2BY,53.5457044,-2.0924036
McDonald's,Pavilion Square,Cricketers Way,Westhoughton,Bolton,BL5 3AJ,53.5474584,-2.5247105
McDonald's,Park Road Two Saints Retail Park,,Ormskirk,Lancashire,L39 3AE,53.5677217,-2.8873008
McDonald's,15,Rigby Road,Blackpool,,FY1 5EP,53.8081548,-3.0501348
McDonald's,1011 Chorley Old Road,,Bolton,Greater Manchester,BL1 5SX,53.59098,-2.48008
McDonald's,Lidun Park Industrial Estate,Boundary Road,Lytham Saint Annes,Lancashire,FY8 5HU,53.745483,-2.937257
McDonald's,Clifford Street,,Chorley,Lancashire,PR7 1AQ,53.655191,-2.628036
McDonald's,Hyndburn Road,,Accrington,Lancashire,BB5 1PY,53.755135,-2.368871
McDonald's,Holm Road,Barrow,Clitheroe,Lancashire,BB7 9WF,53.839921,-2.3944412
McDonald's,J4 Interchange,Daisyfield Street,Darwen,Blackburn with Darwen,BB3 0AT,53.71266,-2.4776416
McDonald's,213 Fishergate Fishergate Shopping Centre,,Preston,Lancashire,PR1 8HJ,53.7573232,-2.7052823
McDonald's,Pittman Way,Fulwood,Preston,Lancashire,PR2 9NP,53.7917524,-2.6852209
McDonald's,116 Southway The Concourse Shopping Centre,,Skelmersdale,Lancashire,WN8 6LQ,53.5499908,-2.7717308
McDonald's,10 Queens Road,Cheetham Hill,Manchester,Greater Manchester,M8 8UF,53.4999898,-2.2353798
McDonald's,Caton Road,,Lancaster,Lancashire,LA1 3PE,54.0674463,-2.7841924
McDonald's,Haslingden Road,Rawtenstall,Rossendale,Lancashire,BB4 6QX,53.6993038,-2.290961
McDonald's,22/24 Market Place,,Loughborough,Leicestershire,LE11 3EB,52.772168,-1.2059262
McDonald's,Fosse Shopping Park,Fosse Park Avenue,Leicester,Leicestershire,LE19 1HX,52.5978591,-1.1773624
McDonald's,3 Market Street,,Leicester,,LE1 6DN,52.6332808,-1.1341754
McDonald's,Atherstone Road,,Swadlincote,Leicestershire,DE12 7AP,52.6875638,-1.5482227
McDonald's,Stephenson Way,,Coalville,Leicestershire,LE67 3NU,52.7323011,-1.3747746
McDonald's,Thorpe End,,Melton Mowbray,Leicestershire,LE13 1RB,52.764507,-0.8816884
McDonald's,Wakes Road,,Wigston,Leicestershire,LE18 1PD,52.588623,-1.1033781
McDonald's,Park Road,,Loughborough,Leicestershire,LE11 2HJ,52.7590734,-1.2058023
McDonald's,18B,Meridian East,Leicester,Leicestershire,LE19 1WZ,52.6025533,-1.1884372
McDonald's,Melton Road,West Langton,Market Harborough,Leicestershire,LE16 7FD,52.5110325,-0.9415287
McDonald's,Lountside,,Ashby-de-la-Zouch,Leicestershire,LE65 1JP,52.7509473,-1.446503
McDonald's,Netherhall Road,,Leicester,,LE5 1DL,52.6473946,-1.069336
McDonald's,Warwick Way,,Loughborough,Leicestershire,LE11 4UG,52.780781,-1.228157
McDonald's,A1,Colsterworth,Grantham,Lincolnshire,NG33 5FF,52.8051745,-0.6111339
McDonald's,44 Victoria Street West,Freshney Place,Grimsby,North East Lincolnshire,DN31 1DG,53.5661961,-0.0865093
McDonald's,Moorland Close,,Lincoln,Lincolnshire,LN6 7JL,53.2032967,-0.5802148
McDonald's,Holbeach Road,,Spalding,Lincolnshire,PE12 6JP,52.7982531,-0.1228274
McDonald's,Brayford Way,,Lincoln,Lincolnshire,LN6 7FS,53.2269748,-0.5506894
McDonald's,The Carlton Centre,Outer Circle Road,Lincoln,Lincolnshire,LN2 4UX,53.2413623,-0.5093086
McDonald's,Gateway Park,Newark Road,South Hykeham,Lincoln,LN6 9UJ,53.1774869,-0.6205077
McDonald's,Vicarage Lane,Long Sutton,Spalding,Lincolnshire,PE12 9AF,52.7734584,0.1347584
McDonald's,Lincoln Road,Holdingham,Sleaford,Lincolnshire,NG34 8NP,53.0127253,-0.4234883
McDonald's,Queen Street,,Boston,Lincolnshire,PE21 8XZ,52.9752113,-0.0313823
McDonald's,Bridge End Road,,Grantham,Lincolnshire,NG31 7ES,52.9039129,-0.6355051
McDonald's,RETAIL PARK,Ryhall Road,Stamford,Lincolnshire,PE9 1TX,52.6585474,-0.4655017
McDonald's,Grand Parade,,Skegness,Lincolnshire,PE25 2UG,53.1442251,0.3451564
McDonald's,50 Trinity Street,,Gainsborough,Lincolnshire,DN21 2HA,53.3974857,-0.7726391
McDonald's,Milestone Road,,Bourne,Lincolnshire,PE10 0ET,52.7546444,-0.3691303
McDonald's,A16 Sutterton Roundabout,A17,Sutterton,Boston,PE20 2LF,52.8885009,-0.085807
McDonald's,75 Ty-Glas Avenue,Llanishen,Cardiff,,CF14 5DX,51.5267063,-3.1900093
McDonald's,58 Powis Street,,London,Greater London,SE18 6LQ,51.4916183,0.066586
McDonald's,15 Seven Sisters Road,,London,Greater London,N7 6AJ,51.5579339,-0.1199256
McDonald's,110 Kensington High Street,London,SUNDIAL,Greater London,W8 4SG,51.5012112,-0.1930739
McDonald's,34/35 Strand,,London,Greater London,WC2N 5HY,51.5088591,-0.1245081
McDonald's,155 Victoria Street,,London,Greater London,SW1E 5NA,51.4966475,-0.1404806
McDonald's,122 Baker Street,,London,Greater London,W1U 6TX,51.5214078,-0.1567959
McDonald's,90 Uxbridge Road,,London,Greater London,W12 8LR,51.5046695,-0.2205744
McDonald's,208 Earls Court Road,,London,Greater London,SW5 9QB,51.4924052,-0.1935735
McDonald's,180 Edgware Road,,London,Greater London,W2 2DS,51.5176223,-0.1661789
McDonald's,101 High Road,,London,Greater London,N22 6BB,51.5929731,-0.1068299
McDonald's,295 Kentish Town Road,,London,Greater London,NW5 2TJ,51.5493204,-0.1412087
McDonald's,314 North End Road,,London,Greater London,SW6 1NG,51.4828058,-0.2006513
McDonald's,10 Oxford Street,,London,Greater London,W1D 1AW,51.5165181,-0.1309627
McDonald's,55/61 Eltham High Street,,London,Greater London,SE9 1TD,51.4509445,0.0524832
McDonald's,159 Balham High Road,,London,Greater London,SW12 9AU,51.4438006,-0.1522749
McDonald's,33 Chase Side,,London,Greater London,N14 5BP,51.6327532,-0.1296215
McDonald's,260 Hoe Street,,London,Greater London,E17 3AX,51.583595,-0.0190726
McDonald's,32 High Street North,,London,Greater London,E6 2HJ,51.5340315,0.0537326
McDonald's,134 Tottenham Court Road,,London,Greater London,W1T 5BA,51.5243677,-0.1379964
McDonald's,32 Saint John's Road,,London,Greater London,SW11 1PW,51.4628913,-0.1678522
McDonald's,76 Rye Lane,,London,Greater London,SE15 5DQ,51.4702033,-0.0688378
McDonald's,130 High Street,,London,Greater London,SE20 7EZ,51.4148913,-0.0528476
McDonald's,200 Walworth Road,,London,Greater London,SE17 1JJ,51.4895203,-0.096788
McDonald's,151 High Street,,London,Greater London,W3 6LP,51.5069087,-0.2703978
McDonald's,129 Kilburn High Road,,London,Greater London,NW6 6JJ,51.539459,-0.1955598
McDonald's,508 High Road,,London,Greater London,N17 9JF,51.5938399,-0.0691126
McDonald's,44 Mitcham Road,,London,Greater London,SW17 9NA,51.4267844,-0.1668969
McDonald's,84-84A Putney High Street,,London,Greater London,SW15 1RB,51.4637066,-0.2157459
McDonald's,363 Mare Street,,London,Greater London,E8 1HY,51.5478406,-0.0551515
McDonald's,436 Bethnal Green Road,,London,Greater London,E2 0DJ,51.5268931,-0.0594227
McDonald's,Butterfly Walk,Denmark Hill,London,Greater London,SE5 8RW,51.4732189,-0.0928606
McDonald's,112 High Holborn,,London,Greater London,WC1V 6JS,51.51789,-0.11969
McDonald's,185-187 Oxford Street,,London,Greater London,W1D 2JU,51.5154603,-0.1388302
McDonald's,157 Colindeep Lane,,London,Greater London,NW9 6DB,51.5909597,-0.2550274
McDonald's,42 Kingsland High Street,,London,Greater London,E8 2JP,51.5473047,-0.0752268
McDonald's,873 High Road Leytonstone,,London,Greater London,E11 1HR,51.5701362,0.0133512
McDonald's,166/172 Lewisham High Street,,London,Greater London,SE13 6JL,51.4604298,-0.0114024
McDonald's,118 Fore Street,,London,Greater London,N18 2XA,51.6123466,-0.0646461
McDonald's,67 Chapel Market,,London,Greater London,N1 9ER,51.5334099,-0.1084948
McDonald's,140 Cricklewood Broadway,,London,Greater London,NW2 3EE,51.5559012,-0.214009
McDonald's,291B Oxford Street,,London,Greater London,W1C 2DT,51.5148189,-0.1440131
McDonald's,16 Evelyn Street Bestwood Retail Park,,London,Greater London,SE8 5DQ,51.4896616,-0.0425149
McDonald's,326 Romford Road,,London,Greater London,E7 8BD,51.5463467,0.0279842
McDonald's,134 Clapham High Street,,London,Greater London,SW4 7UH,51.4628565,-0.135531
McDonald's,49 King's Road,,London,Greater London,SW3 4ND,51.489829,-0.1628144
McDonald's,518,Malt Street,London,Greater London,SE1 5BA,51.4844171,-0.0684222
McDonald's,112 Camden High Street,,London,Greater London,NW1 0LU,51.5376298,-0.1412164
McDonald's,774 High Road,,London,Greater London,N12 9QH,51.6155824,-0.1764471
McDonald's,Williamson Road,,London,Greater London,N4 1DR,51.5769043,-0.0980453
McDonald's,1 Marl Road,,London,Greater London,SW18 1JT,51.462289,-0.187103
McDonald's,69 Saint Martin's Lane,,London,Greater London,WC2N 4JS,51.5114352,-0.1268901
McDonald's,177 Brompton Road,,London,Greater London,SW3 1NF,51.4982511,-0.1656549
McDonald's,UNIT 25 The Concourse Liverpool Street Station,,London,Greater London,EC2M 7PY,51.5192508,-0.0810913
McDonald's,518/522 Brixton Road,,London,Greater London,SW9 8EN,51.4612785,-0.1160489
McDonald's,50-52 The Broadway Units 1/3/22C The Arcadia Centre,,London,Greater London,W5 2ND,51.5135096,-0.3041284
McDonald's,168 Barking Road,,London,Greater London,E16 1EN,51.5181789,0.0141573
McDonald's,144 Praed Street,,London,Greater London,W2 1HU,51.5161931,-0.1747256
McDonald's,110 Notting Hill Gate,,London,Greater London,W11 3QA,51.5089851,-0.1981837
McDonald's,Quill Street,Hanger Lane,London,Greater London,W5 1DN,51.533864,-0.2960932
McDonald's,241 City Road,,London,Greater London,EC1V 1JQ,51.5291238,-0.0942707
McDonald's,22 Streatham Place,,London,Greater London,SW2 4PZ,51.4458689,-0.125121
McDonald's,Westhorne Avenue,Eltham Road,London,Greater London,SE9 5LN,51.45268,0.034939
McDonald's,6/7 Holborn Circus,,London,Greater London,EC1N 2LL,51.5179151,-0.1107367
McDonald's,13-21,Euston Road,London,Greater London,NW1 2RY,51.5300282,-0.123218
McDonald's,8,Claps Gate Lane,London,Greater London,E6 6LG,51.5219233,0.0718443
McDonald's,High Road Great North Leisure Park,,London,Greater London,N12 0GL,51.6047477,-0.1735061
McDonald's,106 The Highway,London,WESTBOUND,Greater London,E1W 2BX,51.509247,-0.0605727
McDonald's,Bugsby Way Peninsular Retail Park,,London,Greater London,SE7 7TZ,51.4896337,0.0209436
McDonald's,Units 7,,London,Greater London,W6 9YD,51.4921366,-0.223935
McDonald's,45/47 Whitehall,,London,Greater London,SW1A 2BX,51.5062762,-0.1268239
McDonald's,280 Holloway Road,,London,Greater London,N7 6NJ,51.554344,-0.1140079
McDonald's,51 Sewardstone Road,,London,Greater London,E4 7PU,51.635563,-0.0134854
McDonald's,381 Oxford Street,,London,Greater London,W1C 2JS,51.5137525,-0.1496276
McDonald's,139 North Circular Road,,London,Greater London,NW10 0NX,51.5516657,-0.2617475
McDonald's,Catford Island,,London,Greater London,SE6 2DD,51.4450326,-0.0184625
McDonald's,Friern Bridge Retail Park,Pegasus Way,London,Greater London,N11 3PW,51.6104484,-0.1433776
McDonald's,370 Wandsworth Road,,London,Greater London,SW8 4ET,51.471418,-0.1372467
McDonald's,1 Twin Tumps Way,,London,Greater London,SE28 8RD,51.5061527,0.1050332
McDonald's,01-Feb,The Mall,London,Greater London,E15 1XA,51.5414306,0.000233
McDonald's,302/304 Pentonville Road,,London,Greater London,N1 9XD,51.5309122,-0.1222788
McDonald's,25-27 Shaftesbury Avenue,,London,Greater London,W1D 7EQ,51.5110735,-0.1338883
McDonald's,UNIT 3 Hollywood green,,London,Greater London,N22 6EJ,51.596916,-0.1089488
McDonald's,286 Green Lanes,,London,Greater London,N13 5TU,51.6181759,-0.1078065
McDonald's,76/78 Queensway,,London,Greater London,W2 3RL,51.5127891,-0.1873689
McDonald's,217 Commercial Road,,London,Greater London,E1 2BT,51.5149151,-0.0596374
McDonald's,252 Upper Street,,London,Greater London,N1 1RU,51.5455831,-0.1033957
McDonald's,43 UNIT 43 THE COLONNADE WATERLOO STATION,,London,Greater London,SE1 8SF,51.5031465,-0.1132592
McDonald's,Welland Street Crescent Arcade 2,,London,Greater London,SE10 9EJ,51.4818227,-0.010761
McDonald's,4 Payne Road,,London,Greater London,E3 2SP,51.5296689,-0.0149935
McDonald's,23 Highgate Hill,,London,Greater London,N19 5LP,51.5657732,-0.1357381
McDonald's,Armada Way,,London,Greater London,E6 7ER,51.5160856,0.0776554
McDonald's,Wandsworth Shopping Centre,,London,Greater London,SW18 4TG,51.4561771,-0.1942706
McDonald's,1 Montfichet Road,,London,Greater London,E20 1EH,51.5437488,-0.0067383
McDonald's,13 Greenford Road,Greenford,Harrow,Greater London,UB6 0UW,51.542799,-0.342174
McDonald's,Unit 6,Bell Green Retail Park,London,Greater London,SE26 4PU,51.4295064,-0.0376211
McDonald's,Ruston Road,,London,Greater London,SE18 5NS,51.49293,0.046165
McDonald's,84-86 Charing Cross Road,,London,Greater London,WC2H 8AA,51.5136113,-0.1290719
McDonald's,48 Leicester Square,,London,Greater London,WC2H 7LU,51.5101822,-0.1309127
McDonald's,12 Leamington Park,,London,Greater London,W3 6TJ,51.5203132,-0.26348
McDonald's,1a Ludgate Hill,,London,Greater London,EC4M 7AA,51.5136805,-0.1008889
McDonald's,Tooley Street,Bridge,London,Greater London,SE1 2TF,51.5053302,-0.0850643
McDonald's,Thames Way,,Gravesend,Kent,DA11 0DQ,51.4429452,0.3611517
McDonald's,98 Town Centre,,Hatfield,Hertfordshire,AL10 0JP,51.7630233,-0.2286851
McDonald's,31 Roehampton Vale,,London,Greater London,SW15 3DT,51.4395515,-0.2458642
McDonald's,Forty Lane,,Wembley,Greater London,HA9 9EX,51.5647181,-0.2757246
McDonald's,2-20 Western Road,,London,Greater London,NW10 7LW,51.528686,-0.270059
McDonald's,Tollgate Road,,London,Greater London,E6 5JP,51.514567,0.058071
McDonald's,1235 Chester Road,Stretford,Manchester,Greater Manchester,M32 8NB,53.4429737,-2.3098574
McDonald's,Pamir Drive,,Ashton-under-Lyne,Greater Manchester,OL7 0PG,53.487428,-2.112828
McDonald's,28 Jennifer Avenue,,Liverpool,Merseyside,L5 5AA,53.4242294,-2.9812889
McDonald's,89-91 Altcar Road,Formby,Liverpool,Merseyside,L37 8DL,53.5545838,-3.0447225
McDonald's,282 Stanley Road,,Bootle,Merseyside,L20 3ER,53.4519603,-2.9904448
McDonald's,31/33 Church Street,,Saint Helens,Merseyside,WA10 1AX,53.4521491,-2.7361175
McDonald's,24/30 Liscard Way,Liscard,Wallasey,Merseyside,CH44 5TP,53.4195706,-3.0435303
McDonald's,82/86 Lord Street,,Liverpool,Merseyside,L2 1TL,53.4052408,-2.9860447
McDonald's,262/264 Grange Road,,Birkenhead,Merseyside,CH41 6EB,53.389216,-3.0303212
McDonald's,Edge Lane,Retail Park,Old Swan,Liverpool,L13 1AD,53.4098234,-2.9230481
McDonald's,Aintree Shopping Park,Ormskirk Road,Aintree,Liverpool,L9 5AN,53.4825772,-2.951388
McDonald's,stonedale retail park,East Lancashire Road,Liverpool,Merseyside,L11 9DH,53.4565722,-2.9156653
McDonald's,Kew Retail Park,Scarisbrick New Road,Scarisbrick,Southport,PR8 5HW,53.6325518,-2.9697855
McDonald's,Speke Hall Road,Hunt's Cross,Liverpool,Merseyside,L24 9GB,53.3586829,-2.86533
McDonald's,218 Walton Road,Kirkdale,Liverpool,Merseyside,L4 4BB,53.436836,-2.9719054
McDonald's,20 Huyton Hey Road,Huyton,Liverpool,Merseyside,L36 5RT,53.4102492,-2.8378896
McDonald's,switch island leisure park,Dunnings Bridge Road,Bootle,Merseyside,L30 6TQ,53.4843841,-2.9623091
McDonald's,372 Queens Drive Walton,,Liverpool,Merseyside,L4 8UU,53.4391432,-2.9397657
McDonald's,The Rock Retail Park,Green Lane,Rock Ferry,Birkenhead,CH41 9DF,53.3862827,-3.0148218
McDonald's,County Road,Kirkby,Liverpool,Merseyside,L32 1TS,53.4840783,-2.8850538
McDonald's,Liverpool Road,Page Moss,Huyton,Liverpool,L36 3YB,53.4219117,-2.8622221
McDonald's,Cables Retail Park,Warrington Road,Prescot,Merseyside,L34 5QX,53.425954,-2.8005786
McDonald's,34 Earle Street,Earlestown,Newton-le-Willows,Merseyside,WA12 9LW,53.4505308,-2.642772
McDonald's,New Mersey Retail Park Speke,Road,Speke,Liverpool,L24 8QB,53.350327,-2.8792593
McDonald's,263-267 Rice Lane,,Liverpool,Merseyside,L9 3BY,53.4573199,-2.9626262
McDonald's,1 Aigburth Road,Dingle,Liverpool,Merseyside,L17 4JP,53.3814508,-2.9546219
McDonald's,69 Blundell Street,Albert Dock,Liverpool,Merseyside,L1 0AJ,53.3962908,-2.9843674
McDonald's,310 Kensington,Fairfield,Liverpool,Merseyside,L7 2RN,53.4120517,-2.9447377
McDonald's,Marine Parade Ocean Plaza,,Southport,Merseyside,PR8 1SA,53.6529747,-3.0127419
McDonald's,298 Childwall Valley Road,,Liverpool,Merseyside,L25 2RJ,53.3910212,-2.8563859
McDonald's,Chalon Way West,,Saint Helens,Merseyside,WA10 1BF,53.4503459,-2.7395061
McDonald's,Waterton Retail Park,Picton Gardens,Bridgend,Bridgend County Borough,CF31 3XX,51.4957082,-3.5670135
McDonald's,554 London Road,Stanwell,Ashford,Surrey,TW15 3AE,51.4423215,-0.4747904
McDonald's,3 Sharpdale Loan Cameron Toll Shopping Centre,,Edinburgh,,EH16 5PB,55.9282281,-3.1619884
McDonald's,Magor Motorway Service Area M4 Junction 23A,Magor,Caldicot,Monmouthshire,NP26 3YL,51.5883383,-2.8363066
McDonald's,Afan Way,,Port Talbot,Neath Port Talbot Principle Area,SA12 6LL,51.5931497,-3.791906
McDonald's,Glynneath Business Park,Cwmgwrach,Neath,Neath Port Talbot Principle Area,SA11 5NZ,51.7425919,-3.6363095
McDonald's,2 Newbridge Gateway,Bridge Street,Newport,Caerphilly County Borough,NP11 5GH,51.6625755,-3.1390854
McDonald's,Delft Way,,Norwich,Norfolk,NR6 6BB,52.6680969,1.2720111
McDonald's,71 High Street,,King's Lynn,Norfolk,PE30 1AY,52.7554174,0.3949316
McDonald's,114 Regent Road,,Great Yarmouth,Norfolk,NR30 2AB,52.6069525,1.7289961
McDonald's,70/72 Boundary Road,,Norwich,Norfolk,NR6 5JB,52.6545275,1.2692471
McDonald's,Norwich Road,,Swaffham,Norfolk,PE37 7TZ,52.6524226,0.724565
McDonald's,Church Road,Hoveton,Norwich,Norfolk,NR12 8DB,52.7120783,1.4102113
McDonald's,162 Barrett Road,,Norwich,Norfolk,NR1 2RT,52.6102671,1.2917334
McDonald's,1 Hardwick Road,Campbells Meadow,King's Lynn,Norfolk,PE30 4YN,52.7402993,0.4096202
McDonald's,Gapton Hall Road,Purley Court,Great Yarmouth,Norfolk,NR31 0LZ,52.59724,1.7119
McDonald's,Forest Retail Park,London Road,Thetford,Norfolk,IP24 3QL,52.4052971,0.723943
McDonald's,18 Haymarket,,Norwich,Norfolk,NR2 1QJ,52.6272539,1.2927015
McDonald's,The Dining Terrace,Chapelfield Road,Norwich,Norfolk,NR2 1SY,52.625695,1.290762
McDonald's,Clenchwarton Road,West Lynn,King's Lynn,Norfolk,PE34 3LW,52.743407,0.3817926
McDonald's,Yarmouth Road,Witton,Norwich,Norfolk,NR13 5AR,52.6319588,1.4281362
McDonald's,Napier Way,,Dereham,Norfolk,NR19 1FS,52.6712587,0.9510937
McDonald's,Norwich Road,Hethersett,Norwich,Norfolk,NR9 3AU,52.6036416,1.2224276
McDonald's,Longwater Retail Park,Dereham Road,Costessey,Norwich,NR5 0TL,52.6515391,1.1855761
McDonald's,Riverway Retail Park,Riverway,Irvine,North Ayrshire Council,KA12 8AG,55.610746,-4.6729199
McDonald's,Kilwinning Road Hawkhill Retail Park,,Stevenston,North Ayrshire Council,KA20 3DE,55.6475204,-4.7367404
McDonald's,26 Brandon Parade South,Brandon Street,Motherwell,North Lanarkshire,ML1 1RB,55.7904455,-3.9922501
McDonald's,1 Coatbank Street,,Coatbridge,North Lanarkshire,ML5 3SP,55.8604935,-4.0199238
McDonald's,Central Way,Cumbernauld,Glasgow,North Lanarkshire,G67 1NF,55.9492389,-3.9847863
McDonald's,113 Glasgow Road,,Wishaw,North Lanarkshire,ML2 7QJ,55.7751963,-3.9327638
McDonald's,Airdrie Retail Park,Gartlea Road,Airdrie,North Lanarkshire,ML6 9JB,55.8633018,-3.9760928
McDonald's,Barrbridge Road Showcase Leisure Park,Coatbridge,Glasgow,North Lanarkshire,G69 7TU,55.8477208,-4.066235
McDonald's,Farm,,Bellshill,North Lanarkshire,ML4 3HH,55.8198,-4.04066
McDonald's,159 Grimsby Road,,Cleethorpes,North East Lincolnshire,DN35 7DG,53.5689888,-0.0474473
McDonald's,QUAY WEST LEISURE PARK,Birchin Way,Grimsby,North East Lincolnshire,DN31 2SG,53.5747072,-0.0979451
McDonald's,Meridian Point Retail Park,Kings Road,Cleethorpes,North East Lincolnshire,DN35 0AG,53.546269,-0.0140268
McDonald's,Lakeside Parkway,,Scunthorpe,North Lincolnshire,DN16 3UA,53.564697,-0.6155925
McDonald's,2 Doncaster Road,,Scunthorpe,North Lincolnshire,DN15 8TD,53.5890006,-0.6948142
McDonald's,Allensway,Thornaby,Stockton-on-Tees,,TS17 9DZ,54.5405848,-1.2901515
McDonald's,16 Cambridge Road,,Harrogate,North Yorkshire,HG1 1NS,53.9937491,-1.5410595
McDonald's,11-17 Huntriss Row,,Scarborough,North Yorkshire,YO11 2ED,54.2817267,-0.400758
McDonald's,Richmondshire Walk,,Catterick Garrison,North Yorkshire,DL9 3EN,54.3757331,-1.722675
McDonald's,A1(M),,Northallerton,North Yorkshire,DL8 1DT,54.2987799,-1.5652279
McDonald's,Harrogate Road,,Ripon,North Yorkshire,HG4 2SD,54.1209862,-1.5266091
McDonald's,Saint James Retail Park,Grimbald Crag Way,Knaresborough,North Yorkshire,HG5 8PZ,53.99936,-1.444417
McDonald's,Enterprise Way Airedale Business Centre,Millennium Road,Skipton,North Yorkshire,BD23 2UB,53.9410642,-2.0128596
McDonald's,three lakes retail park,Bawtry Road,Selby,North Yorkshire,YO8 8LY,53.7728741,-1.0649024
McDonald's,Boroughbridge Road,,York,,YO26 6QD,53.9716113,-1.1436422
McDonald's,15A M1 Southbound Junction,,Northampton,Northamptonshire,NN4 9QY,52.2097993,-0.943229
McDonald's,Drapery,,Northampton,Northamptonshire,NN1 2ET,52.237396,-0.897373
McDonald's,39 High Street,,Kettering,Northamptonshire,NN16 8SU,52.3988613,-0.7285733
McDonald's,Wellingborough Road Weston Favell Shopping Centre,,Northampton,Northamptonshire,NN3 8YU,52.2552136,-0.8345573
McDonald's,65 Corporation Street,,Corby,Northamptonshire,NN17 1NQ,52.4875663,-0.7031949
McDonald's,Walter Tull Way,Sixfields,Northampton,Northamptonshire,NN5 5QJ,52.2374591,-0.9357077
McDonald's,A43,,Towcester,Northamptonshire,NN12 6TQ,52.128564,-1.003733
McDonald's,Kettering Road,A14,Rothwell,Eastbound,NN14 1SS,52.4147688,-0.7910705
McDonald's,3 Fairground Way,Riverside Retail Park,Northampton,Northamptonshire,NN3 9HY,52.2435537,-0.8355558
McDonald's,Vicar Lane,South Way,Daventry,Northamptonshire,NN11 4GD,52.2585362,-1.1563142
McDonald's,Courier Road,,Corby,Northamptonshire,NN17 5DT,52.4947619,-0.6807732
McDonald's,Wilby Way,,Wellingborough,Northamptonshire,NN8 2DR,52.2847183,-0.7110648
McDonald's,London Road,A45,Raunds,Wellingborough,NN9 6EQ,52.3536688,-0.5451908
McDonald's,Orion Way,,Kettering,Northamptonshire,NN15 6NL,52.3775,-0.7205834
McDonald's,M1 Watford Gap Motorway Services Area,"North, Nothbound",Watford,Northampton,NN6 7UZ,52.306312,-1.1230774
McDonald's,M1 Watford Gap Motorway Services Area,"North, Nothbound",Watford,Northampton,NN6 7UZ,52.306312,-1.1230774
McDonald's,Stanier Retail Park,Northfield Avenue,Kettering,Northamptonshire,NN16 9XW,52.4060635,-0.7345596
McDonald's,45 London Road,,Wellingborough,Northamptonshire,NN8 2DP,52.2938658,-0.6838983
McDonald's,Kettering Road,,Northampton,Northamptonshire,NN3 6AA,52.2597919,-0.8709079
McDonald's,Little Colliers Field,Great Oakley,Kettering,Northamptonshire,NN18 8TJ,52.458235,-0.7360524
McDonald's,Towcester Road Unit 7,,Northampton,Northamptonshire,NN1 1EE,52.234366,-0.9047615
McDonald's,2-4 Donegall Place,,Belfast,,BT1 5BA,54.5991094,-5.9300681
McDonald's,1-3 Glenmachan Street,Boucher Road,Belfast,,BT12 6JA,54.587958,-5.957993
McDonald's,37-39 Railway Street,,Strabane,Derry and Strabane,BT82 8EQ,54.8292899,-7.4681155
McDonald's,233 Shore Road,,Belfast,,BT15 3PR,54.6286591,-5.9232312
McDonald's,Loaning Meadows,North Road,Berwick-upon-Tweed,Northumberland,TD15 1UN,55.7841554,-2.0152889
McDonald's,Moor Farm,Annitsford,Cramlington,Northumberland,NE23 7QA,55.064741,-1.580907
McDonald's,Lintonville Parkway,,Ashington,Northumberland,NE63 9UN,55.1861169,-1.5694863
McDonald's,334 Cowpen Road,,Blyth,Northumberland,NE24 5ND,55.1300055,-1.5426386
McDonald's,2 Hawfinch Drive,,Alnwick,Northumberland,NE66 2BF,55.3987002,-1.6927554
McDonald's,victoria centre,Nottingham,MILTON STREET,Nottingham,NG1 3QN,52.9567878,-1.1476152
McDonald's,victoria retail park,Colwick Loop Road,Netherfield,Nottingham,NG4 2PE,52.9612913,-1.0674251
McDonald's,35 Clumber Street,,Nottingham,,NG1 3ED,52.9546427,-1.1478174
McDonald's,5 West Gate,,Mansfield,Nottinghamshire,NG18 1RY,53.1448317,-1.1968244
McDonald's,Castle Bridge Road Castle Marina,,Nottingham,,NG7 1GX,52.9448793,-1.1629022
McDonald's,13/14 Exchange Walk,Saint Peter's Gate,Nottingham,,NG1 2NX,52.9524744,-1.1491874
McDonald's,Priestsic Road,,Sutton-in-Ashfield,Nottinghamshire,NG17 1BE,53.1264362,-1.2635822
McDonald's,Interchange,,Retford,Nottinghamshire,DN22 0QU,53.2555543,-0.9215212
McDonald's,55A Radcliffe Road,West Bridgford,Nottingham,Nottinghamshire,NG2 5FX,52.9386163,-1.1299552
McDonald's,Chilwell Retail Park,Nottingham Road,Chilwell,Nottingham,NG9 6DS,52.902833,-1.2439857
McDonald's,Kings Mill Road East,,Sutton-in-Ashfield,Nottinghamshire,NG17 4JP,53.1316703,-1.2348053
McDonald's,7 Angel Row,,Nottingham,,NG1 6HL,52.9537184,-1.1528387
McDonald's,Lincoln Road,,Newark,Nottinghamshire,NG24 2DB,53.0920946,-0.7900576
McDonald's,Mansfield Leisure Park,Park Lane,Mansfield,Nottinghamshire,NG18 1BU,53.1361918,-1.198525
McDonald's,High Grounds Road,,Worksop,Nottinghamshire,S80 3AT,53.3101328,-1.143685
McDonald's,Old Rufford Road,Saville Roundabout,Ollerton,Newark,NG22 9DT,53.2005222,-1.0264523
McDonald's,Nottingham Road,Sir John Robinson Way,Arnold,Nottingham,NG5 6BN,52.9987368,-1.1345579
McDonald's,503 Clifton Lane Clifton Retail Park,,Nottingham,Clifton,NG11 8NA,52.905545,-1.1883048
McDonald's,57 Cornmarket Street,,Oxford,Oxfordshire,OX1 3HB,51.7523683,-1.2581777
McDonald's,298 London Road,Headington,Oxford,Oxfordshire,OX3 8DJ,51.762564,-1.1953446
McDonald's,Milton Heights,Milton,Abingdon,Oxfordshire,OX14 4TX,51.6186361,-1.3013133
McDonald's,1 Colwell Drive,,Abingdon,Oxfordshire,OX14 1AU,51.6699196,-1.3001518
McDonald's,Ducklington Lane,,Witney,Oxfordshire,OX28 4JF,51.7786488,-1.4932137
McDonald's,Beaumont Road,,Banbury,Oxfordshire,OX16 1RH,52.0719452,-1.3437796
McDonald's,Oxford Road,Benson,Wallingford,Oxfordshire,OX10 6LX,51.6229591,-1.1180515
McDonald's,Botley Road,Botley,Oxford,Oxfordshire,OX2 0JR,51.7530409,-1.2933712
McDonald's,Acorn Way,,Banbury,Oxfordshire,OX16 3AB,52.0763352,-1.3175292
McDonald's,Baynards Green Roundabout,,Bicester,Oxfordshire,OX27 7SG,51.9589301,-1.2023127
McDonald's,Lakeview Drive,,Bicester,Oxfordshire,OX26 1DE,51.8915729,-1.1617023
McDonald's,Caradog's Well Road,Merlin's Bridge,Haverfordwest,Pembrokeshire,SA61 1XJ,51.7917652,-4.9792009
McDonald's,58 London Road,Bierspool,Pembroke Dock,Pembrokeshire,SA72 6BP,51.6938491,-4.9332094
McDonald's,91 Dunkeld Road,,Perth,Perth and Kinross,PH1 5AP,56.4066577,-3.4462889
McDonald's,Broxden Avenue,,Perth,Perth and Kinross,PH2 0PX,56.3875621,-3.4809224
McDonald's,Pool Road,Cambrian Way,Newtown,Powys,SY16 1DG,52.5142096,-3.3100784
McDonald's,Phoenix Retail Park,Linwood Road,Paisley,Renfrewshire,PA3 3AT,55.8439548,-4.4738707
McDonald's,108 Renfrew Road,,Paisley,Renfrewshire,PA3 4DU,55.8559721,-4.4151364
McDonald's,Gadlys Road,,Aberdare,Rhondda Cynon Taff,CF44 8DL,51.7164333,-3.4466575
McDonald's,Llwynypia Road,Gwyddon Road,Tonypandy,Rhondda Cynon Taff,CF40 2JQ,51.6305844,-3.4549474
McDonald's,NANTGARW BUSINESS PARK,Heol Crochendy,Trefforest,Cardiff,CF15 7QX,51.5647676,-3.274974
McDonald's,UNIT 1 Rotherham Road,Stonerow Way,Parkgate,Rotherham,S60 1SG,53.4422186,-1.3488541
McDonald's,1,North Sherwood Street,Overdale,Telford,TF3 4BN,52.676353,-2.445528
McDonald's,Meole Brace Retail Park,Hereford Road,Shrewsbury,Shropshire,SY3 9NB,52.6884463,-2.7548905
McDonald's,2 Whitchurch Drive,Wellington,Telford,Shropshire,TF1 2DE,52.6915024,-2.4909291
McDonald's,Telford Forge Retail Park,Old Park,Overdale,Telford,TF3 4AG,52.6812469,-2.4524178
McDonald's,School Road,Donnington,Telford,Shropshire,TF2 8HH,52.724703,-2.4340544
McDonald's,Battlefield Road,,Shrewsbury,Shropshire,SY1 4AQ,52.7405422,-2.7200183
McDonald's,Wrexham Road,,Whitchurch,Shropshire,SY13 1JZ,52.9665579,-2.7051932
McDonald's,RETAIL PARK,Audley Avenue,Newport,Shropshire,TF10 7BX,52.7676038,-2.373872
McDonald's,40 Southgate Street,,Bath,Bath and North East Somerset,BA1 1TG,51.378809,-2.3598601
McDonald's,57-58 East Street,,Taunton,Somerset,TA1 3LX,51.0144298,-3.0995269
McDonald's,46 Regent Street,,Weston-super-Mare,North Somerset,BS23 1SL,51.3473201,-2.9778118
McDonald's,Heron Gate,,Taunton,Somerset,TA1 2LP,51.0242099,-3.0668537
McDonald's,Weston Lock Retail Park,Lower Bristol Road,Twerton,Bath,BA2 1EP,51.3805672,-2.3899867
McDonald's,Vulcan Road,,Minehead,Somerset,TA24 6DG,51.2040629,-3.4638832
McDonald's,Wessex Fields,,Frome,Somerset,BA11 4DH,51.216306,-2.3322809
McDonald's,Queensway House,Queen's Way,Weston-super-Mare,North Somerset,BS22 6BL,51.3617545,-2.9091641
McDonald's,M5 Southbound J25-26,Trull,Taunton,Somerset,TA3 7PF,50.9758823,-3.1462683
McDonald's,M5 Southbound J25-26,Trull,Taunton,Somerset,TA3 7PF,50.9758823,-3.1462683
McDonald's,Southbound,,Axbridge,Somerset,BS26 2UF,51.269183,-2.9195274
McDonald's,Creechbarrow Road,,Taunton,Somerset,TA1 2AN,51.0230801,-3.0832312
McDonald's,2 Whitletts Road,Racecourse,Ayr,South Ayrshire Council,KA8 0JE,55.4683316,-4.6105954
McDonald's,Lees Burn Court,Nerston,East Kilbride,Glasgow,G74 3XB,55.779833,-4.1634332
McDonald's,11 QUEENSWAY SOUTH,East Kilbride,Glasgow,South Lanarkshire,G74 1HE,55.7648243,-4.2102389
McDonald's,RETAIL PARK,Clydesdale Street,Hamilton,South Lanarkshire,ML3 0DF,55.7794912,-4.0538665
McDonald's,Princes Square,,Glasgow,East Kilbride,G74 1LJ,55.7606445,-4.1771146
McDonald's,Palace grounds retail park,Palace Grounds Road,Hamilton,South Lanarkshire,ML3 6AD,55.7784569,-4.0293214
McDonald's,14 LOWER MALL LEVEL,Crystal Peaks,Sheffield,South Yorkshire,S20 7PJ,53.3416074,-1.3512422
McDonald's,26-30 Bridgegate,,Rotherham,South Yorkshire,S60 1PQ,53.4318162,-1.3572209
McDonald's,63/65 Saint Sepulchre Gate,,Doncaster,South Yorkshire,DN1 1RX,53.5219189,-1.1365856
McDonald's,633 Penistone Road,Hillsborough,Sheffield,South Yorkshire,S6 2GB,53.4022287,-1.4929849
McDonald's,Doncaster Road,,Rotherham,South Yorkshire,S65 3SR,53.4426077,-1.3210314
McDonald's,Old Mill Lane,,Barnsley,South Yorkshire,S71 1LN,53.5598799,-1.4741444
McDonald's,meadowhall retail park,Attercliffe Common,Sheffield,South Yorkshire,S9 2YZ,53.4057062,-1.4145679
McDonald's,20/22 High Street,Sheffield City Centre,Sheffield,South Yorkshire,S1 2GE,53.382551,-1.4677803
McDonald's,Lakeside,Bawtry Road,Doncaster,South Yorkshire,DN4 7PD,53.5149595,-1.102173
McDonald's,Maple Road Wentworth Industrial Park,,Barnsley,Tankersley,S75 3DL,53.4875007,-1.4935197
McDonald's,Farm Road Granville Square,,Sheffield,South Yorkshire,S2 2TP,53.3740949,-1.4622404
McDonald's,Thorne Road Retail Park,Ogden Road,Doncaster,South Yorkshire,DN2 5DX,53.5456722,-1.0814494
McDonald's,Bawtry Road,Bramley,Rotherham,South Yorkshire,S66 1YY,53.4230184,-1.2549474
McDonald's,White Rose Way Lakeside Village,,Doncaster,South Yorkshire,DN4 5PH,53.5060286,-1.1123707
McDonald's,Archer Road Millhouses,,Sheffield,South Yorkshire,S8 0JT,53.3463137,-1.4905717
McDonald's,Wombwell Lane,Stairfoot,Barnsley,South Yorkshire,S70 3NT,53.5449223,-1.4377047
McDonald's,Centenary Way,Canklow Roundabout,Rotherham,South Yorkshire,S60 2XG,53.4104113,-1.36134
McDonald's,Retail Park,Corton Wood,Brampton Bierlow,Cortonwood,S73 0TB,53.507751,-1.3886459
McDonald's,BALBY RETAIL PARK,Sandford Road,Balby,Doncaster,DN4 8DD,53.5073085,-1.1481433
McDonald's,Rockingham Way,Woodlands,Doncaster,South Yorkshire,DN6 7FB,53.5758846,-1.207435
McDonald's,Upper New Street,,Barnsley,South Yorkshire,S70 1LQ,53.5491927,-1.4795623
McDonald's,North Walls Kingsmead Retail Park,,Stafford,Staffordshire,ST16 3AE,52.8089018,-2.1156735
McDonald's,84/86 High Street,Newcastle-under-Lyme,Newcastle,Staffordshire,ST5 1QQ,53.010484,-2.226923
McDonald's,50-52 Greengate Street,,Stafford,Staffordshire,ST16 2JE,52.80646,-2.11729
McDonald's,12 Station Street,,Burton-on-Trent,Staffordshire,DE14 1AN,52.8029225,-1.6309187
McDonald's,29 Parliament Row,Hanley,Stoke-on-Trent,,ST1 1PW,53.0254618,-2.1738875
McDonald's,12 Conduit Street,,Lichfield,Staffordshire,WS13 6JR,52.6838658,-1.8268541
McDonald's,Watling Street Linkway Retail Park,,Cannock,Staffordshire,WS11 1TD,52.6785821,-2.0490747
McDonald's,Festival Heights Retail Park,Ridgehouse Drive,Stoke-on-Trent,,ST1 5SJ,53.0282279,-2.192963
McDonald's,Springfield Retail Park,Newcastle Road,Stoke-on-Trent,,ST4 6PD,52.9950963,-2.2078857
McDonald's,East Retail Park,,Burton-on-Trent,Staffordshire,DE14 2WG,52.7948763,-1.6670239
McDonald's,Bitterscote Drive Ventura Retail Park,,Tamworth,Staffordshire,B78 3HD,52.6276354,-1.7042016
McDonald's,Meir Park,Lysander Road,Stoke-on-Trent,,ST3 7WA,52.9710447,-2.0879583
McDonald's,Ashbourne Road By Pass Road,,Uttoxeter,Staffordshire,ST14 5AA,52.9103408,-1.8719655
McDonald's,Victoria Road,Fenton,Stoke-on-Trent,,ST4 2HX,53.0089163,-2.165824
McDonald's,634 High Street Tunstall,,Stoke-on-Trent,,ST6 5PH,53.071158,-2.21578
McDonald's,Dimsdale Parade West,Wolstanton,Newcastle-under-Lyme,Newcastle,ST5 8HS,53.0355385,-2.2386869
McDonald's,The Beeches,Derby Road,Burton-on-Trent,Staffordshire,DE13 0BB,52.8265665,-1.6194973
McDonald's,Park Industrial Estate,,Cannock,Staffordshire,WS11 7GF,52.6936191,-2.0090147
McDonald's,Birmingham Road,WALL ISLAND,Lichfield,Staffordshire,WS14 0QP,52.6526632,-1.8347718
McDonald's,STAFFORD TRADE CENTRE,Eccleshall Road,Stafford,Staffordshire,ST16 2RA,52.815926,-2.123878
McDonald's,Phoenix Retail Park,Baths Road,Stoke-on-Trent,,ST3 2JB,52.9907495,-2.1425021
McDonald's,Watling Street,Two Gates,Tamworth,Staffordshire,B77 5AB,52.6108363,-1.6776579
McDonald's,tower business park,Power Station Road,Rugeley,Staffordshire,WS15 1LX,52.7575718,-1.927742
McDonald's,M6 Southbound J15-14 Stone,,Stone,Staffordshire,ST15 0EU,52.8732362,-2.1609923
McDonald's,Bettys Lane Norton Canes,,Cannock,Norton Canes,WS11 9UX,52.6649069,-1.9679535
McDonald's,Milestone Way,Chasetown,Burntwood,Staffordshire,WS7 3XA,52.6804782,-1.9351986
McDonald's,Norton Retail Park,Daisy Bank Road,Stoke-on-Trent,,ST1 6AX,53.047682,-2.1630379
McDonald's,54 Murray Place,,Stirling,,FK8 2BX,56.1189419,-3.9362371
McDonald's,Drip Road,,Stirling,,FK8 1RW,56.1286439,-3.942713
McDonald's,Central Retail Park,Grahams Road,Falkirk,,FK1 1LW,56.0036899,-3.7769401
McDonald's,Cedars Park,Thorney Way,Stowmarket,Suffolk,IP14 5EP,52.182635,1.019215
McDonald's,37 London Road North,,Lowestoft,Suffolk,NR32 1BH,52.4746776,1.7508783
McDonald's,31A Tavern Street,,Ipswich,Suffolk,IP1 3AG,52.0577676,1.155387
McDonald's,42 Cornhill,,Bury Saint Edmunds,Suffolk,IP33 1DX,52.24636,0.71321
McDonald's,Ranelagh Road,,Ipswich,Suffolk,IP2 0AP,52.0563841,1.1323471
McDonald's,Norwich Road,Gillingham,Beccles,Norfolk,NR34 0HF,52.4746332,1.5464709
McDonald's,Haven Exchange,Walton Avenue,Felixstowe,Suffolk,IP11 2QX,51.9562717,1.3281681
McDonald's,Arbor Lane,Pakefield,Lowestoft,Suffolk,NR33 7BG,52.446596,1.7251045
McDonald's,Grafton Way Cardinal Leisure Park,,Ipswich,Suffolk,IP1 1UZ,52.052683,1.1501189
McDonald's,Chilton Industrial Estate Northern Road,,Sudbury,Suffolk,CO10 2XQ,52.0469376,0.7463072
McDonald's,2 Hening Avenue,,Ipswich,Suffolk,IP3 9QJ,52.029984,1.2011634
McDonald's,Clacket Lane Westbound M25 Between J5 and J6,,Westerham,Tatsfield,TN16 2ER,51.2710892,0.0398278
McDonald's,Clacket Lane Westbound M25 Between J5 and J6,,Westerham,Tatsfield,TN16 2ER,51.2710892,0.0398278
McDonald's,M25 Food court Building,Downside,Cobham,Surrey,KT11 3DB,51.3042447,-0.4056688
McDonald's,40 High Street,,Epsom,Surrey,KT19 8AH,51.3340661,-0.2654297
McDonald's,43/45 High Street,,Camberley,Surrey,GU15 3RB,51.3381155,-0.7441946
McDonald's,7 High Street,,Walton-on-Thames,Surrey,KT12 1DG,51.3859588,-0.4192575
McDonald's,17,Chertsey Road,Woking,Surrey,GU21 5AB,51.3194879,-0.5562244
McDonald's,QUADRANT,,Redhill,Surrey,RH1 1NT,51.2404082,-0.1671656
McDonald's,82 Eden Street,,Kingston upon Thames,Greater London,KT1 1DJ,51.41003,-0.30224
McDonald's,Wood Street Units L5 & L6 The Bentall Centre,,Kingston upon Thames,Greater London,KT1 1TR,51.4116045,-0.3048913
McDonald's,The Friary centre,North Street,ENTRANCE,Guildford,GU1 4YT,51.2380868,-0.5760454
McDonald's,489-497 London Road,York Town,Camberley,Surrey,GU15 3JE,51.3342426,-0.7669353
McDonald's,108 Horley Road,,Redhill,Surrey,RH1 5AA,51.2128732,-0.1706555
McDonald's,Hailsham Road,,Polegate,East Sussex,BN26 6QL,50.829141,0.236081
McDonald's,M4,,Swansea,Carmarthenshire,SA4 0FU,51.7475227,-4.0659027
McDonald's,Morfa Shopping Park,Bon-y-maen,Swansea,,SA1 7DF,51.6421296,-3.926975
McDonald's,Trunk Road,Eston,Middlesbrough,Redcar and Cleveland,TS6 9QH,54.5723453,-1.1611894
McDonald's,95 Linthorpe Road,,Middlesbrough,,TS1 5DD,54.5745838,-1.2376585
McDonald's,Newmarket Avenue Teesside Retail Park,,Stockton-on-Tees,,TS17 7BS,54.5581213,-1.2784776
McDonald's,Durham Road Summerville Farm,,Stockton-on-Tees,,TS21 3LU,54.5908751,-1.3505308
McDonald's,Cambridge Road,Fleetpoint,Middlesbrough,,TS3 8AG,54.5751541,-1.2051837
McDonald's,Stainton Way,Hemlington,Coulby Newham,Middlesbrough,TS8 9LX,54.5227369,-1.2199867
McDonald's,Portrack Retail Park,Cheltenham Road,Stockton-on-Tees,,TS18 2SP,54.5762431,-1.2809221
McDonald's,REDCAR RETAIL PARK,Thrush Road,Redcar,Redcar and Cleveland,TS10 2AX,54.6143623,-1.0664226
McDonald's,Leisure Park,North Ormesby Road,Middlesbrough,,TS4 2AG,54.5756679,-1.226869
McDonald's,Marina Way,,Hartlepool,,TS24 0XR,54.6888007,-1.2080424
McDonald's,14/20,NORTH WALK,Cwmbran,Torfaen Principal Area,NP44 1PR,51.6549972,-3.0211597
McDonald's,A4042,New Inn,Pontypool,Torfaen Principal Area,NP4 0XB,51.6933474,-3.0206566
McDonald's,House,,Newcastle upon Tyne,Tyne and Wear,NE1 7DF,54.975882,-1.6125013
McDonald's,5 King Street,,South Shields,Tyne and Wear,NE33 1DA,54.9984729,-1.4325013
McDonald's,250 High Street West,,Sunderland,Tyne and Wear,SR1 3DE,54.907307,-1.3839129
McDonald's,85-93 Grainger Street,,Newcastle upon Tyne,Tyne and Wear,NE1 5JF,54.9719398,-1.6148751
McDonald's,metro retail park,Hollinside Road,Gateshead,Tyne and Wear,NE11 9XU,54.9582485,-1.6753837
McDonald's,Shearlegs Road Felling Bypass,,Gateshead,Tyne and Wear,NE8 3EJ,54.9618677,-1.5879805
McDonald's,The Silverlink,North Shields,Wallsend,Tyne and Wear,NE28 9ND,55.0103213,-1.4966093
McDonald's,Parkway Galleries Shopping Centre,,Washington,Tyne and Wear,NE38 7SB,54.8999187,-1.5324752
McDonald's,West Denton Retail Park,Stamfordham Road,Newcastle upon Tyne,Tyne and Wear,NE5 2NF,54.9954654,-1.6824038
McDonald's,Unit 3 Wessington Way,,Sunderland,Tyne and Wear,SR5 3NU,54.9186281,-1.4332535
McDonald's,236,Metrocentre,Gateshead,Tyne and Wear,NE11 9XY,54.9586111,-1.6705556
McDonald's,Boldon Leisure Park,Kirkstall Road,Boldon Colliery,Tyne and Wear,NE35 9PB,54.9468016,-1.4663023
McDonald's,Potts Street,Byker,Newcastle upon Tyne,Tyne and Wear,NE6 1ED,54.9771896,-1.575186
McDonald's,Kingston Park Avenue,Belvedere Parkway,Newcastle upon Tyne,Tyne and Wear,NE3 2PA,55.0126,-1.6662808
McDonald's,The Precinct WESLEY COURT Wesley Court,,Blaydon-on-Tyne,Tyne and Wear,NE21 5BT,54.9646198,-1.7124575
McDonald's,Ryhope Road,Ryhope,Sunderland,Tyne and Wear,SR2 0SP,54.8785082,-1.3613718
McDonald's,Sunderland Retail Park,Roker Avenue,Roker,Sunderland,SR6 0DA,54.916847,-1.382159
McDonald's,Newcastle Road,Towers Place,South Shields,Tyne and Wear,NE34 9QD,54.9706281,-1.4626378
McDonald's,East Bailey Killingworth Shopping Centre,,Newcastle upon Tyne,Killingworth,NE12 6YT,55.0372895,-1.5648325
McDonald's,The Peel Centre,Spire Road,Washington,Tyne and Wear,NE37 2PA,54.9065387,-1.5024245
McDonald's,North Moor Road,,Sunderland,Tyne and Wear,SR3 1TJ,54.8816551,-1.4235554
McDonald's,Whitley Road,Longbenton,Newcastle upon Tyne,Newcastle upon Tyne,NE12 9NH,55.0206166,-1.5367894
McDonald's,Rotary Way North Brunton,,Newcastle upon Tyne,Tyne and Wear,NE3 5HN,55.0359472,-1.624617
McDonald's,Pheasant Fields Lane,Skelton-in-Cleveland,Saltburn-by-the-Sea,Redcar and Cleveland,TS12 2ZL,54.5666154,-0.9625047
McDonald's,34 THE PARADE,,Leamington Spa,Warwickshire,CV32 4DN,52.2923389,-1.5360877
McDonald's,18/20 Queens Road,,Nuneaton,Warwickshire,CV11 5JW,52.5223528,-1.4693544
McDonald's,3 Bridge Street,,Stratford-upon-Avon,Warwickshire,CV37 6AB,52.1925715,-1.7044211
McDonald's,5 Market Place,,Rugby,Warwickshire,CV21 3DY,52.3723331,-1.2623899
McDonald's,Bermuda Park St Davids Way,Bedworth,Nuneaton,Warwickshire,CV10 7SD,52.497963,-1.4744519
McDonald's,Leicester Road Junction One Retail Park,,Rugby,Warwickshire,CV21 1RW,52.3857328,-1.261054
McDonald's,London Road,,Rugby,Warwickshire,CV23 9LG,52.344352,-1.340674
McDonald's,Newtown Road,,Nuneaton,Warwickshire,CV11 4FL,52.526464,-1.4666162
McDonald's,Emscote Road,,Warwick,Warwickshire,CV34 5QJ,52.2866633,-1.5634614
McDonald's,10/14 Britannia Way,Clyde shopping centre,Clydebank,West Dunbartonshire Council,G81 2RZ,55.9042078,-4.4027384
McDonald's,27,Glasgow Road,Dumbarton,West Dunbartonshire Council,G82 1RB,55.94408,-4.56311
McDonald's,Whitburn Road,,Bathgate,West Lothian,EH48 2RA,55.8986825,-3.6439159
McDonald's,4 Almondvale Avenue,,Livingston,West Lothian,EH54 6QX,55.8839195,-3.5179292
McDonald's,4 Almondvale Avenue,,Livingston,West Lothian,EH54 6QX,55.8839195,-3.5179292
McDonald's,100 Watson Road,Nechells,Birmingham,West Midlands,B7 5SA,52.5038578,-1.854937
McDonald's,High Street Block E,,Stourbridge,West Midlands,DY8 1JN,52.4583994,-2.1455579
McDonald's,244,High Street,Sandwell Centre,West Bromwich,B70 7QG,52.5183809,-1.9940148
McDonald's,10,Stephenson Place,Birmingham,West Midlands,B2 4PY,52.478664,-1.89791
McDonald's,51/53 Dudley Street,Mander Centre,Wolverhampton,West Midlands,WV1 3ER,52.5853131,-2.1272417
McDonald's,Kings Parade,,Birmingham,West Midlands,B4 7LN,52.4802994,-1.8940969
McDonald's,66 High Street,,Solihull,West Midlands,B91 3TB,52.4132931,-1.7788185
McDonald's,727 Bristol Road South,Northfield,Birmingham,West Midlands,B31 2NG,52.4164943,-1.9704426
McDonald's,1 Lower Parade,The Parade,Sutton Coldfield,West Midlands,B72 1XX,52.5627177,-1.8224694
McDonald's,51A The Embankment,Brierley Hill,Dudley,West Midlands,DY5 1SY,52.4799567,-2.1114066
McDonald's,2 Wigston Road,Walsgrave on Sowe,Coventry,West Midlands,CV2 2RZ,52.4308431,-1.4384531
McDonald's,5 Bristol Road,,Birmingham,West Midlands,B5 7TT,52.4670588,-1.9022089
McDonald's,38 Warwick Road,Olton,Solihull,West Midlands,B92 7HX,52.4415853,-1.8113651
McDonald's,Lea Road,,Wolverhampton,West Midlands,WV3 0LH,52.5776218,-2.1355664
McDonald's,26 Cross Cheaping,,Coventry,West Midlands,CV1 1HF,52.4096908,-1.510883
McDonald's,1157 Chester Road,Erdington,Birmingham,West Midlands,B24 0QY,52.5210643,-1.8027037
McDonald's,81 Halesowen Street,,Oldbury,West Midlands,B69 2AW,52.5024658,-2.0177671
McDonald's,1661 Bristol Road South,Longbridge,Rednal,Birmingham,B45 9UA,52.3962046,-1.9962564
McDonald's,1036 Stratford Road,Shirley,Solihull,West Midlands,B90 4EL,52.3830244,-1.7925344
McDonald's,Alvis Retail Park,Holyhead Road,Coventry,West Midlands,CV5 8BW,52.4124459,-1.5285212
McDonald's,Coventry Road,South Yardley,Birmingham,West Midlands,B26 1DS,52.4600204,-1.8028205
McDonald's,Garretts Green Lane,Kitt's Green,Birmingham,West Midlands,B33 0XH,52.4783694,-1.7810594
McDonald's,Arlington Business Park,Tile Hill Lane,Canley,Coventry,CV4 9BJ,52.402921,-1.5578573
McDonald's,Grove Lane,,Smethwick,West Midlands,B66 2SF,52.4880531,-1.9494217
McDonald's,724 Chester Road,Erdington,Birmingham,West Midlands,B24 0EA,52.5330459,-1.8287695
McDonald's,Bromsgrove Road,,Halesowen,West Midlands,B63 3JQ,52.4480428,-2.0457098
McDonald's,Brickhouse Lane South,Great Bridge,West Bromwich,Tipton,DY4 7HJ,52.5314101,-2.03002
McDonald's,91 All Saints Way,,West Bromwich,West Midlands,B71 1RG,52.530452,-1.988171
McDonald's,Birchley Island,Wolverhampton Road,Oldbury,West Midlands,B69 4RJ,52.4923531,-2.0224514
McDonald's,Bordesley Green Road,Belchers Lane,Birmingham,West Midlands,B9 5RT,52.4804631,-1.8333427
McDonald's,725 Cannock Road,Fallings Park,Wolverhampton,West Midlands,WV10 8PN,52.6117396,-2.1005352
McDonald's,College Road,New Oscott,Birmingham,West Midlands,B44 0AA,52.542722,-1.868221
McDonald's,Off Wednesfield Way,Well Lane,Wolverhampton,West Midlands,WV11 1BP,52.5960362,-2.0909907
McDonald's,Broadwalk Retail Park,Bescot Crescent,Walsall,West Midlands,WS1 4SB,52.5681501,-1.9928815
McDonald's,51a Dudley Road,Wall Heath,Kingswinford,West Midlands,DY6 8WT,52.50022,-2.1529
McDonald's,High Street,,Bilston,West Midlands,WV14 0EZ,52.5628749,-2.0822625
McDonald's,Reedswood Retail Park,,Walsall,West Midlands,WS2 8XD,52.5966264,-2.0006338
McDonald's,The Gallagher Retail Park,Stoney Stanton Road,Coventry,West Midlands,CV6 5QE,52.4292335,-1.4885377
McDonald's,Daw End Lane,Rushall,Walsall,West Midlands,WS4 1JW,52.6065176,-1.9615319
McDonald's,London Road,Bassetts Pole,Sutton Coldfield,Warwickshire,B75 5SA,52.5907696,-1.7806373
McDonald's,51 Merry Hill,,Brierley Hill,West Midlands,DY5 1SH,52.4803598,-2.1109263
McDonald's,UNIT 4 Cherry Street,Temple Row,Birmingham,West Midlands,B2 5AL,52.480515,-1.8978954
McDonald's,345 Bosworth Drive,,Birmingham,West Midlands,B37 5EX,52.4785325,-1.7398663
McDonald's,109 Coventry Road,Small Heath,Birmingham,West Midlands,B10 0RJ,52.4731238,-1.872954
McDonald's,Parson's Hill,King's Norton,Birmingham,West Midlands,B30 3PN,52.4086925,-1.9170801
McDonald's,Castlegate Way,,Dudley,West Midlands,DY1 4TA,52.515464,-2.073392
McDonald's,152 Holyhead Road,West Bromwich,Birmingham,West Midlands,B21 0AP,52.510107,-1.961818
McDonald's,Willenhall Lane,Binley,Coventry,West Midlands,CV3 2EA,52.3979899,-1.4412665
McDonald's,Park Road,Cradley,Halesowen,West Midlands,B63 2RG,52.4579976,-2.0944081
McDonald's,90 Stafford Road,,Wolverhampton,West Midlands,WV10 6JF,52.6018593,-2.1295361
McDonald's,Stechford Retail Park,Flaxley Parkway,Stechford,Birmingham,B33 9AN,52.4873354,-1.8107884
McDonald's,69 Kent Street,Upper Gornal,Dudley,West Midlands,DY3 1UX,52.5262508,-2.1143735
McDonald's,20 Fort Parkway,,Birmingham,West Midlands,B24 9FP,52.5087306,-1.8204641
McDonald's,26 Wisemore,,Walsall,West Midlands,WS2 8EZ,52.5881427,-1.9841321
McDonald's,24 Haslett Avenue West,,Crawley,West Sussex,RH10 1HS,51.114102,-0.187127
McDonald's,12 Liverpool Road,,Worthing,West Sussex,BN11 1SX,50.810636,-0.371139
McDonald's,Upper Shoreham Road,,Shoreham-by-Sea,West Sussex,BN43 6TD,50.8451095,-0.2487308
McDonald's,Ring Road North,Horley,Gatwick,West Sussex,RH6 0NN,51.1585885,-0.1555265
McDonald's,Crawley Avenue West Green,,Crawley,West Sussex,RH10 8NF,51.1237346,-0.1918024
McDonald's,Portfield Way,,Chichester,West Sussex,PO19 7WT,50.8424586,-0.7554192
McDonald's,LEISURE PARK,London Road,Crawley,West Sussex,RH10 8LR,51.1204803,-0.188865
McDonald's,165 London Road,,East Grinstead,West Sussex,RH19 1ET,51.128285,-0.013376
McDonald's,Eastern Avenue,,Shoreham-by-Sea,West Sussex,BN43 6PW,50.8332748,-0.2643351
McDonald's,Worthing Road,West Grinstead,Horsham,West Sussex,RH13 8LW,50.9917344,-0.3411347
McDonald's,Terminus Road,,Chichester,West Sussex,PO19 8EL,50.8297628,-0.785956
McDonald's,Pegler Way,,Crawley,West Sussex,RH11 7AH,51.1135976,-0.1920663
McDonald's,3 Oldlands Way,,Bognor Regis,West Sussex,PO22 9SA,50.8035285,-0.6662708
McDonald's,Gallagher Retail Park,Wakefield Road,Tandem,Huddersfield,HD5 0BS,53.645979,-1.7325699
McDonald's,Merrion Street,,Leeds,West Yorkshire,LS2 8LQ,53.8005562,-1.5443118
McDonald's,22/24 Old Market,,Halifax,West Yorkshire,HX1 1TN,53.7235006,-1.8601977
McDonald's,Leeds Road West Side Retail Park,,Leeds,Guiseley,LS20 9NE,53.8697739,-1.7039648
McDonald's,1 Kirkgate,,Huddersfield,West Yorkshire,HD1 1QJ,53.6470104,-1.7822511
McDonald's,38 Butt Lane,Farnley,Leeds,West Yorkshire,LS13 4JE,53.7951296,-1.6216093
McDonald's,York Road Acorn Business Centre,,Leeds,West Yorkshire,LS14 6UF,53.8053426,-1.4783321
McDonald's,Gelderd Road Centre 27 Business Park,,Batley,West Yorkshire,WF17 9TB,53.7439144,-1.6421291
McDonald's,501 Leeds Road,,Huddersfield,West Yorkshire,HD2 1YJ,53.6603653,-1.7626898
McDonald's,Dewsbury Road,,Wakefield,West Yorkshire,WF2 9BY,53.6784534,-1.5228673
McDonald's,Park road Retail park,Park Road,Pontefract,West Yorkshire,WF8 4PR,53.6974614,-1.3203711
McDonald's,Rooley Lane,Parkway,Bradford,West Yorkshire,BD5 8JY,53.768795,-1.7476203
McDonald's,Cathedral Retail Park,Charlesworth Way,Wakefield,West Yorkshire,WF2 9SE,53.6761325,-1.5026983
McDonald's,7 Low Road,Hunslet,Leeds,West Yorkshire,LS10 1QR,53.782173,-1.5278925
McDonald's,Millshaw Road White Rose Shopping Centre,,Leeds,West Yorkshire,LS11 8LU,53.7584462,-1.5738781
McDonald's,Bradford Road,Idle,Bradford,West Yorkshire,BD10 8EG,53.8244129,-1.7347869
McDonald's,Easterly Road,The,Oakwood,Leeds,LS8 2RB,53.821492,-1.4962371
McDonald's,1 Cardigan Fields Road Cardigan Fields Leisure Park,,Leeds,Burley,LS4 2DG,53.8062772,-1.5833279
McDonald's,45 Ingleby Road,,Bradford,West Yorkshire,BD8 9AP,53.797637,-1.7843719
McDonald's,2 Tony Miller Approach,,Shipley,West Yorkshire,BD17 7TS,53.8351138,-1.7713363
McDonald's,Colorado Way,Glasshoughton,Castleford,West Yorkshire,WF10 4TA,53.7093769,-1.3357273
McDonald's,2 NORTHGATE CENTRE,,Heckmondwike,West Yorkshire,WF16 9RL,53.7091509,-1.6768942
McDonald's,Salterhebble Hill,,Halifax,West Yorkshire,HX3 0QE,53.7031536,-1.8531928
McDonald's,Ring Road West Park,Horsforth,Leeds,West Yorkshire,LS16 6EB,53.8388319,-1.6068319
McDonald's,2 Hard Ings Road,,Keighley,West Yorkshire,BD21 3NB,53.8744596,-1.9035432
McDonald's,Off Hoxton Mount,Elland Road,Beeston,Leeds,LS11 8BU,53.7780362,-1.5677489
McDonald's,407 Bradford Road,,Brighouse,West Yorkshire,HD6 4BT,53.7165483,-1.7788759
McDonald's,Rooley Lane,Parkway,Bradford,West Yorkshire,BD4 7SR,53.7688112,-1.7476396
McDonald's,Owlcotes Business Centre,Varley Street,Stanningley,Pudsey,LS28 6AR,53.8040626,-1.6714882
McDonald's,1,Stile Hill Way,Colton,Leeds,LS15 9JH,53.7927623,-1.4317108
McDonald's,Thrum Hall Lane,,Halifax,West Yorkshire,HX1 4JT,53.7247643,-1.8887434
McDonald's,Cooperative Road,Morley,Leeds,West Yorkshire,LS27 0BP,53.7355576,-1.6100411
McDonald's,Red Hall Lane,,Wakefield,West Yorkshire,WF1 2UZ,53.696608,-1.5062302
McDonald's,23 Canal Walk,,Swindon,,SN1 1LD,51.5610881,-1.7861893
McDonald's,13/15 Winchester Street,,Salisbury,Wiltshire,SP1 1HB,51.0697534,-1.7935626
McDonald's,Great Western Way,Cockleberry,Swindon,,SN2 1US,51.568789,-1.7791948
McDonald's,Bath Road,,Chippenham,Wiltshire,SN14 0AF,51.4481948,-2.1497495
McDonald's,Greenbridge Retail Park,Drakes Way,Swindon,,SN3 3SG,51.5712998,-1.7527623
McDonald's,Unit 1,,Trowbridge,Wiltshire,BA14 0AZ,51.3031664,-2.209438
McDonald's,Beanacre Road,,Melksham,Wiltshire,SN12 8RP,51.381887,-2.1431715
McDonald's,Majors Road,Watchfield,Swindon,Oxfordshire,SN6 8TQ,51.6149969,-1.6369251
McDonald's,Thamesdown Drive Orbital Shopping Park,,Swindon,,SN25 4AN,51.5991339,-1.808636
McDonald's,Solstice Park Avenue,Amesbury,Salisbury,Wiltshire,SP4 7SQ,51.1767828,-1.7591459
McDonald's,Great Western Way,,Swindon,,SN5 7FQ,51.5603808,-1.8141136
McDonald's,Southampton Road,Petersfinger,Salisbury,Wiltshire,SP1 2FF,51.061525,-1.7734586
McDonald's,1 Welton Road The Croft Leisure Park,Birkenhead,Bromborough,Wirral,CH62 3PN,53.3386472,-2.9800124
McDonald's,Upton By-Pass,Birkenhead,Wirral,Merseyside,CH49 6QG,53.3803332,-3.1001568
McDonald's,Kinsey Road,,Ellesmere Port,Cheshire West and Chester,CH65 9JJ,53.265322,-2.8797361
McDonald's,M5 SOUTHBOUND,,Worcester,Worcestershire,WR8 0BZ,52.0579607,-2.1408678
McDonald's,Plymouth Road,,Redditch,Worcestershire,B97 4EQ,52.3057252,-1.9446409
McDonald's,2/4 Angel Street,The Foregate,Worcester,Worcestershire,WR1 3QF,52.1938032,-2.2217123
McDonald's,The Link,Four Pools Lane,Evesham,Worcestershire,WR11 2UT,52.0774879,-1.9382822
McDonald's,Worcester Road,,Kidderminster,Worcestershire,DY10 1JS,52.3704017,-2.2466325
McDonald's,Hylton Road Retail Park Parking,Tybridge Street,Worcester,Worcestershire,WR2 5JS,52.1916043,-2.2292704
McDonald's,Townsend Way Three Counties Retail Park,,Malvern,Worcestershire,WR14 1PY,52.1311,-2.30309
McDonald's,Worcester Road,Wychbold,Droitwich,Worcestershire,WR9 7PA,52.2897582,-2.1192516
McDonald's,20B Lower Mill Street,,Kidderminster,Worcestershire,DY11 6TT,52.3882617,-2.2521225
McDonald's,M5 SOUTHBOUND,,Worcester,Worcestershire,WR8 0BZ,52.0579607,-2.1408678
McDonald's,York Road,Shiptonthorpe,York,East Riding of Yorkshire,YO43 3PN,53.8738188,-0.7008598
McDonald's,Monks Cross Drive,Huntington,York,,YO32 9GW,53.9889233,-1.0488969
McDonald's,13-17 Boothferry Road,,Hull,Kingston upon Hull,HU3 6UA,53.7429246,-0.3860104
McDonald's,39-41 Jameson Street,,Hull,Kingston upon Hull,HU1 3JA,53.7447115,-0.3409507
McDonald's,535 Goldington Road,Elm Farm Industrial Estate,Bedford,,MK41 0DX,52.1453852,-0.4204322
McDonald's,Sandbach Motorway Services Area,M6 Northbound,Sandbach,Cheshire East,CW11 2FZ,53.139259,-2.3374209
McDonald's,530 Helen Street,Iborx,Glasgow,Glasgow City,G52 1EE,55.8514034,-4.3196631
McDonald's,Barrhead Road Unit 37 (Unit Z4) Silverburn Shopping,,Glasgow,Glasgow City,G53 6AF,55.8227774,-4.3430631
McDonald's,Mostyn Champneys Retail Park,Charlotte Road,Llandudno,Conwy Principal Area,LL30 1RY,53.3183367,-3.8195892
McDonald's,Unit 64 Lakeside Shopping Centre,,Grays,Thurrock,RM20 2ZF,51.487517,0.283963
McDonald's,Straight Road,Harold Hill,Romford,Greater London,RM3 8XR,51.6003423,0.2113664
McDonald's,Northwick Road Northwick Retail Park,,Canvey Island,Essex,SS8 0PS,51.5233187,0.552304
McDonald's,Airport Retail Park,Rochford Road,Southend-on-Sea,,SS2 6FW,51.566675,0.7030558
McDonald's,266 Eastern Avenue,Southchurch,Southend-on-Sea,,SS2 4BN,51.551983,0.7354103
McDonald's,QUEENSWAY INDUSTRIAL ESTATE,,Glenrothes,Fife,KY7 5QF,56.1987898,-3.1651238
McDonald's,Cliff Road,High Road,Blackwood,Caerphilly County Borough,NP12 0NT,51.6720078,-3.1942448
McDonald's,Great Western Road,,Glasgow,Glasgow City,G15 6SA,55.9038381,-4.3776717
McDonald's,Hedge End Retail Park,Tollbar Way,Southampton,Hampshire,SO30 2UH,50.9196042,-1.313384
McDonald's,Harbour Parade,west quay retail park,Southampton,,SO15 1QB,50.9048137,-1.4139144
McDonald's,2 Waterloo Park,Elettra Avenue Waterloo Park,Waterlooville,Hampshire,PO7 7TZ,50.8853134,-1.0393985
McDonald's,Belmont Road,,Hereford,Herefordshire,HR2 7HB,52.0431774,-2.7328467
McDonald's,4 Harben Parade (Right),Swiss Cottage,London,Greater London,NW3 6JP,51.5445318,-0.1761437
McDonald's,Prince Charles Drive Brent Cross Shopping Centre,Brent Cross,London,Greater London,NW4 3FQ,51.5764866,-0.2237425
McDonald's,St Johns Shopping Centre,,Liverpool,Merseyside,L1 1LT,53.4065856,-2.9803676
McDonald's,Church Street Unit 18-22 Clayton Square Shopping Cntre,,Liverpool,Merseyside,L1 1QR,53.4049268,-2.9812667
McDonald's,Iberis Road/Ffordd Iberis,,Abergavenny,Monmouthshire,NP7 9LQ,51.8135865,-3.0242663
McDonald's,Unit 3,Raceway Road,Norwich,Norfolk,NR16 2TX,52.4747363,0.9542173
McDonald's,Hilmore Road,Laceby,Grimsby,North East Lincolnshire,DN37 7SQ,53.5497782,-0.1388275
McDonald's,Dunslow Road,,Scarborough,North Yorkshire,YO11 3UT,54.2368692,-0.4182979
McDonald's,Northampton Motorway Services Northbound,,Northampton,Northamptonshire,NN4 9QS,51.947107,-0.503214
McDonald's,33 Knocknagoney Road,Hollywood,Belfast,Ards and North Down,BT4 2PW,54.6217722,-5.8570563
McDonald's,Westmorland Way,Forum Way,Cramlington,Northumberland,NE23 6YD,55.08499,-1.59479
McDonald's,Springfield Retail Park,Leen Drive,Bulwell,Nottingham,NG6 8EP,53.010081,-1.190616
McDonald's,Greenock Road,,Port Glasgow,,PA14 5BQ,55.9365092,-4.6979208
McDonald's,Braehead Shopping Centre,Kings Inch Road,Glasgow,Renfrewshire,G51 4BS,55.8763728,-4.3646652
McDonald's,11 The Oasis Meadowhall Centre,Meadowhall,Sheffield,South Yorkshire,S9 1EP,53.4139906,-1.4135101
McDonald's,Coleford Road,Darnall,Sheffield,South Yorkshire,S9 5PA,53.3921554,-1.409471
McDonald's,White House Industrial Estate,Goddard Road,Whitton,Ipswich,IP1 5NP,52.0854075,1.1132862
McDonald's,Team Valley Trading Estate,Team Valley,Gateshead,Tyne and Wear,NE11 0BD,54.9236581,-1.6192761
McDonald's,Europa Way,,Leamington Spa,Warwickshire,CV31 3JZ,52.2813436,-1.5471983
McDonald's,K Park Retail,Montrose Street,Clydebank,West Dunbartonshire Council,G81 2QB,55.9063925,-4.3980152
McDonald's,Crescent Road,,Willenhall,West Midlands,WV13 2RB,52.5852842,-2.0405424
McDonald's,33/35 Briggate,,Leeds,West Yorkshire,LS1 6HD,53.7962054,-1.5428751