Name,Line 1,Line 2,Town,County,Postcode,lat,lng
Burger King,3 Wellington Road,Altens,Aberdeen,Aberdeen City,AB12 3JG,57.1088357,-2.0930866
Burger King,Queens Links Leisure Park Esplanade,,Aberdeen,Aberdeen City,AB24 5EN,57.1485065,-2.0772068
Burger King,Guild Street,,Aberdeen,Aberdeen City,AB11 5RG,57.1443263,-2.0966147
Burger King,1 Wellington Avenue,,Aldershot,Hampshire,GU11 1SD,51.2504816,-0.7615008
Burger King,Eureka Leisure Park,Trinity Road,Ashford,Kent,TN25 4AB,51.1617612,0.8710145
Burger King,159-160,High Street,Ayr,South Ayrshire Council,KA7 1PY,55.462126,-4.629539
Burger King,1 Cullwick Street,,Wolverhampton,West Midlands,WV1 2UN,52.5742376,-2.0999533
Burger King,Pyramid Shopping Centre,Grange Precinct,Birkenhead,Merseyside,CH41 2ZL,53.3889015,-3.0268077
Burger King,70 High Street,,Birmingham,West Midlands,B4 7SY,52.4797063,-1.8948399
Burger King,Strathkelvin Retail Park,Bishopbriggs,Strathclyde,East Dunbartonshire Council,G64 2TS,55.9215025,-4.2098974
Burger King,3584 Pine Grove Avenue,Port Huron,St. Clair County,,48060,43.0162092,-82.4498579
Burger King,128 Tremont Street,Boston,Suffolk County,,2108,42.3562933,-71.0618725
Burger King,34 Commercial Road,,Bournemouth,Dorset,BH2 5LP,50.7204166,-1.8815913
Burger King,Castle Lane East,,Bournemouth,Dorset,BH2 7DP,50.747378,-1.825198
Burger King,1200 South Brentwood Boulevard,Richmond Heights,St. Louis County,,63117,38.6317977,-90.345663
Burger King,174 Bath Road,Brunswick,Cumberland County,,4011,43.9069814,-69.9178585
Burger King,The Venue,Merlin Road,Bristol,South Gloucestershire,BS10 7SR,51.5234666,-2.6010152
Burger King,The Venue,Merlin Road,Bristol,South Gloucestershire,BS10 7SR,51.5234666,-2.6010152
Burger King,Unit 6,,Bristol,Eastville,BS5 6XX,51.4740607,-2.5650196
Burger King,42 The Horsefair,Broadmead,Bristol,Bristol City,BS1 3JE,51.4582048,-2.5901048
Burger King,Reel Cinema,Hollywood Park,Burnley,Lancashire,BB11 2EG,53.7844643,-2.2474961
Burger King,1 Bridge Hall Lane,,Bury,Greater Manchester,BL9 7PJ,53.592512,-2.270183
Burger King,143 Highway 641 South,Camden,Benton County,,38320,36.0597876,-88.1164654
Burger King,Unit 3 Cannock Gateway Retail Park,Eastern Way,Cannock,Staffordshire,WS11 8AB,52.6733202,-2.0204369
Burger King,27-39 Saint George's Street,,Canterbury,Kent,CT1 2LE,51.2773604,1.0831329
Burger King,77 Drum Hill Road,Chelmsford,Middlesex County,,1824,42.6245305,-71.3634215
Burger King,206 High Street,,Cheltenham,Gloucestershire,GL50 3HF,51.9014817,-2.075601
Burger King,1145 Tiogue Avenue,Coventry,Kent County,,2816,41.6794749,-71.5819184
Burger King,South Muirhead Road,Cumbernauld,Glasgow,North Lanarkshire,G67 1AX,55.9500213,-3.985266
Burger King,Crossways Business Park,Greenhithe,Dartford,Greenhithe,DA2 6QY,51.451809,0.266101
Burger King,20 Pershing Drive,Ansonia,New Haven County,,6401,41.3329159,-73.0835439
Burger King,47 Central Avenue,Dover,Strafford County,,3820,43.1818101,-70.8754662
Burger King,1 Charles Street,,Plymouth,,PL1 1RQ,50.3722784,-4.1378803
Burger King,Castlegate Drive,,Dudley,West Midlands,DY1 4TD,52.5136048,-2.0701178
Burger King,165 Dundee Avenue,Elgin,Kane County,,60120,42.0397751,-88.2806134
Burger King,1601 North Carolina 55,Durham,Durham County,,27707,35.9705749,-78.8944343
Burger King,Unit 4C Fountain Park,,Edinburgh,,EH11 1AF,55.9417331,-3.2168407
Burger King,89 Princes Street,,Edinburgh,,EH2 2ER,55.95191,-3.198335
Burger King,Egham By-Pass,,Egham,Surrey,TW20 9AZ,51.4354108,-0.5385187
Burger King,165 Dundee Avenue,Elgin,Kane County,,60120,42.0397751,-88.2806134
Burger King,904 Road Kingsbury Road,Erdington,Birmingham,West Midlands,B24 9PY,52.5184758,-1.8058963
Burger King,Food Court,,Farnborough,Hampshire,GU14 6YB,51.2919481,-0.7580758
Burger King,Saint Enoch Square,,Glasgow,Glasgow City,G1 4BW,55.8571897,-4.2547437
Burger King,Great Western Road,,Glasgow,Glasgow City,G15 6SA,55.9030895,-4.3779317
Burger King,Millennium Leisure Park,,London,Greater London,SE10 0QJ,51.4902669,0.0130275
Burger King,Unit 5 Ladymead Retail Park,,Guildford,Surrey,GU1 1AJ,51.2480817,-0.5795236
Burger King,151 West Main Street,Gun Barrel City,Henderson County,,75156,32.3305639,-96.1160199
Burger King,10654 North Carolina 903,Halifax,Halifax County,,27839,36.3626279,-77.6718485
Burger King,Teesbay Retail Park,,Hartlepool,,TS25 1XJ,54.6662683,-1.2092566
Burger King,601 South Broad Street,Lansdale,Montgomery County,,19446,40.2342238,-75.2903629
Burger King,26 Park Road South,Portsmouth,Havant,Hampshire,PO9 1HB,50.850397,-0.9850963
Burger King,Tollbar Way,,Southampton,Hampshire,SO30 2QY,50.9264821,-1.3109362
Burger King,1005 West 1st Street,Hereford,Deaf Smith County,,79045,34.8091497,-102.4096573
Burger King,485,Hillington Road,Hillington,Glasgow,G52 4BL,55.862289,-4.364693
Burger King,Retail Park,Stoneferry Road,Hull,Kingston upon Hull,HU7 0BA,53.7673957,-0.3282239
Burger King,302 Highway 41 South,Inverness,Citrus County,,34450,28.8319131,-82.3259372
Burger King,Unit 3,,Inverness,Highland Council,IV2 3PP,57.4789488,-4.2239373
Burger King,Ransomes Way,Ransomes Industrial Estate,Ipswich,Suffolk,IP3 9SN,52.0329899,1.2049499
Burger King,8695 Irvine Center Drive,Irvine,Orange County,,92618,33.6435887,-117.7437409
Burger King,Leisure Park,Queen's Drive,Kilmarnock,East Ayrshire Council,KA1 3XF,55.6014102,-4.4896165
Burger King,71 Boar Lane,,Leeds,West Yorkshire,LS1 6HW,53.7961726,-1.5431039
Burger King,3810 Old Cheney Road,Lincoln,Lancaster County,,68516,40.7558803,-96.6649246
Burger King,1102 East 47th Street,Kansas City,Jackson County,,64110,39.0421758,-94.5725884
Burger King,Mall,Livingston,Essex County,,7039,40.776231,-74.353527
Burger King,68-67 Week Street,,Maidstone,Kent,ME14 1RS,51.2758687,0.5225127
Burger King,3151 Matlock Road,Mansfield,Tarrant County,,76063,32.6085232,-97.1174793
Burger King,Unit 4 Marine Point,New Brighton,Wallasey,Merseyside,CH45 2HZ,53.4411082,-3.0451568
Burger King,7 Harewood Avenue,,London,Greater London,NW1 6JJ,51.5226568,-0.1634588
Burger King,Brierley Hill DY5 1LL,,Brierley Hill,West Midlands,DY5 1LL,52.4881467,-2.1184165
Burger King,Priory Retail park,,London,Greater London,SW19 1DN,51.4166095,-0.1795016
Burger King,Greenham Road,,Newbury,West Berkshire,RG14 7HZ,51.3965956,-1.3198492
Burger King,Unit 2,,Newcastle upon Tyne,Tyne and Wear,NE1 7DE,54.9748883,-1.6119347
Burger King,Oaks Drive,Fordham Road,Newmarket,Suffolk,CB8 7SX,52.2630325,0.397724
Burger King,Unit 6 Coppins Bridge Leisure Park,Isle of Wight,Newport,,PO30 2TA,50.6986562,-1.289241
Burger King,Sweet Briar Road,,Norwich,Norfolk,NR6 5AL,52.6503396,1.2613804
Burger King,Castle Quarter,,Norwich,Norfolk,NR1 3JX,52.6272805,1.296264
Burger King,lady bay retail park,Meadow Lane,Nottingham,,NG2 3GZ,52.9465162,-1.1315147
Burger King,1003 Highway 21 South,Oxford,Calhoun County,,36203,33.6086216,-85.8274028
Burger King,99 New George Street,,Plymouth,,PL1 1RQ,50.371112,-4.1466329
Burger King,34 Cabot Lane,,Poole,Dorset,BH17 7LG,50.7439882,-1.9861017
Burger King,3 Anderson Street,Glasgow,Port Glasgow,Inverclyde,PA14 5EP,55.9363773,-4.6901275
Burger King,158 Commercial Road,,Portsmouth,,PO1 1EX,50.8008712,-1.0894121
Burger King,Saint Mary's Butts,,Reading,,RG1 2LN,51.4546513,-0.9750702
Burger King,3419 North 5th Street Highway,Reading,Berks County,,19605,40.3864537,-75.9270067
Burger King,59 Sauchiehall Street,,Glasgow,Glasgow City,G2 3AT,55.8643351,-4.2553596
Burger King,Lakeside Retail Park,,Scunthorpe,North Lincolnshire,DN16 3UA,53.5647779,-0.6167296
Burger King,Station,Sheaf Street,Sheffield City Centre,Sheffield,S1 2BQ,53.378386,-1.4627073
Burger King,15-17 High Street,,Solihull,West Midlands,B91 3SJ,52.4138774,-1.7789737
Burger King,McArthur Glen Outlet Store,Mansfield,Alfreton,Derbyshire,DE55 2ER,53.107389,-1.309114
Burger King,Ferrymiur Retail Park,,South Queensferry,Edinburgh,EH30 9QU,55.9832364,-3.3979574
Burger King,98 Above Bar Street,,Southampton,,SO14 7DT,50.905663,-1.4041778
Burger King,234-240 Burgess Road,Swaythling,Southampton,,SO16 3AU,50.9384222,-1.3892445
Burger King,Springfield Quay,Paisley Road,West,Glasgow,G5 8NP,55.8542696,-4.2735173
Burger King,102 East Main Street,Havelock,Craven County,,28532,34.8822543,-76.9102567
Burger King,SPRINGKERSE RETAIL PARK,,Stirling,,FK7 7TL,56.114359,-3.908839
Burger King,Straiton Road,,Loanhead,Midlothian,EH20 9NS,55.8829073,-3.1680164
Burger King,Queen's Drive,,Swindon,,SN3 1AR,51.5623053,-1.7695121
Burger King,Unit 9 Tunnel Industrial Estate,Lakeside Retail Park,West Thurrock,Grays,RM20 3LP,51.485829,0.2714
Burger King,Unit C5,,London,Greater London,N15 4QD,51.5875615,-0.0622487
Burger King,2306 Park Avenue,Muscatine,Muscatine County,,52761,41.448576,-91.0309208
Burger King,Axletree Way,,Wednesbury,West Midlands,WS10 9QY,52.5665458,-2.0069362
Burger King,Retail Park,Armstrong Way,Willenhall,West Midlands,WV13 2PZ,52.576288,-2.046682
Burger King,Wellington Road,,Wokingham,,RG40 2AT,51.4069989,-0.8382217
Burger King,Border Retail Park,Holt Road,Wrexham,Wrexham Principal Area,LL13 8HL,53.0474925,-2.9857463
Burger King,2 Middle Street,,Yeovil,Somerset,BA20 1LZ,50.9413858,-2.6318783
Burger King,3 Whitehill Road,,Edinburgh,,EH15 3HR,55.9320616,-3.1049122